ISO3 code;Flag (one file);Highcharts map;FAO  ISO3 code (ontology);compare ListEN-EN_SNAME;FAO nameListEN (raw);EN_NAME;compare ListES-ES_SNAME;FAO nameListES(raw);ES_NAME;compare ListFR-FR_SNAME;FAO nameListFR(raw);FR_NAME;PT_NAME;;FAO_EN_NAME;FAO_ES_NAME;FAO_FR_NAME;;;;name_long,C,254;admin,C,254;_adm0_a3,C,254;FAO_ISO3;postal,C,254;iso_a2,C,254;iso_a3,C,254;iso_n3,C,254;un_a3,C,254;wb_a2,C,254;wb_a3,C,254;adm0_a3_is,C,254;adm0_a3_us,C,254;faostat_code;region_un,C,254;region_un,C,254;subregion,C,254;region_wb,C,254;;;;;;;;;;;;;;;;
ABW;ABW;ABW;;NO;;Aruba;NO;;Aruba;NO;;Aruba;Aruba;;Aruba;Aruba;Aruba;;;;Aruba;Aruba;ABW;ABW;AW;AW;ABW;533;533;AW;ABW;ABW;ABW;22;Americas;Americas;Caribbean;Latin America & Caribbean;;;;;;;;;;;;;;;;
AFG;AFG;AFG;AFG;SI;Afghanistan;Afghanistan;SI;Afganistán;Afganistán;SI;Afghanistan;Afghanistan;Afeganistão;;The Islamic Republic of Afghanistan;la República Islámica del Afganistán;la République islamique d'Afghanistan;;;;Afghanistan;Afghanistan;AFG;AFG;AF;AF;AFG;004;004;AF;AFG;AFG;AFG;2;Asia;Asia;Southern Asia;South Asia;;;;;;;;;;;;;;;;
AGO;AGO;AGO;AGO;SI;Angola;Angola;SI;Angola;Angola;SI;Angola;Angola;Angola;;the Republic of Angola;la República de Angola;la République d'Angola;;;;Angola;Angola;AGO;AGO;AO;AO;AGO;024;024;AO;AGO;AGO;AGO;7;Africa;Africa;Middle Africa;Sub-Saharan Africa;;;;;;;;;;;;;;;;
AIA;AIA;AIA;AIA;SI;Anguilla;Anguilla;SI;Anguilla;Anguilla;SI;Anguilla;Anguilla;Anguilla;;Anguilla;Anguilla;Anguilla;;;;Anguilla;Anguilla;AIA;AIA;AI;AI;AIA;660;660;-99;-99;AIA;AIA;258;Americas;Americas;Caribbean;Latin America & Caribbean;;;;;;;;;;;;;;;;
ALB;ALB;ALB;ALB;SI;Albania;Albania;SI;Albania;Albania;SI;Albanie;Albanie;Albânia;;the Republic of Albania;la República de Albania;la République d'Albanie;;;;Albania;Albania;ALB;ALB;AL;AL;ALB;008;008;AL;ALB;ALB;ALB;3;Europe;Europe;Southern Europe;Europe & Central Asia;;;;;;;;;;;;;;;;
ALD;;ALD;;NO;;Aland Islands;NO;;Islas de Åland;NO;;Åland;Ilhas Åland;;Aland Islands;Islas de Åland;Åland;;;;Aland Islands;Aland;ALD;;AI;AX;ALA;248;248;-99;-99;ALA;ALD;;Europe;Europe;Northern Europe;Europe & Central Asia;;;;;;;;;;;;;;;;
AND;AND;AND;AND;SI;Andorra;Andorra;SI;Andorra;Andorra;SI;Andorre;Andorre;Andorra;;the Principality of Andorra;el Principado de Andorra;la Principauté d'Andorre;;;;Andorra;Andorra;AND;AND;AND;AD;AND;020;020;AD;ADO;AND;AND;6;Europe;Europe;Southern Europe;Europe & Central Asia;;;;;;;;;;;;;;;;
ARE;ARE;ARE;ARE;SI;United Arab Emirates;United Arab Emirates;SI;Emiratos Árabes Unidos;Emiratos Árabes Unidos;SI;Émirats arabes unis;Émirats arabes unis;Emirados Árabes Unidos;;the United Arab Emirates;los Emiratos Árabes Unidos;les Émirats arabes unis;;;;United Arab Emirates;United Arab Emirates;ARE;ARE;AE;AE;ARE;784;784;AE;ARE;ARE;ARE;225;Asia;Asia;Western Asia;Middle East & North Africa;;;;;;;;;;;;;;;;
ARG;ARG;ARG;ARG;SI;Argentina;Argentina;SI;Argentina;Argentina;SI;Argentine;Argentine;Argentina;;the Argentine Republic;la República Argentina;la République argentine;;;;Argentina;Argentina;ARG;ARG;AR;AR;ARG;032;032;AR;ARG;ARG;ARG;9;Americas;Americas;South America;Latin America & Caribbean;;;;;;;;;;;;;;;;
ARM;ARM;ARM;ARM;SI;Armenia;Armenia;SI;Armenia;Armenia;SI;Arménie;Arménie;Armênia;;the Republic of Armenia;la República de Armenia;la République d'Arménie;;;;Armenia;Armenia;ARM;ARM;ARM;AM;ARM;051;051;AM;ARM;ARM;ARM;1;Asia;Asia;Western Asia;Europe & Central Asia;;;;;;;;;;;;;;;;
ASM;ASM;ASM;ASM;SI;American Samoa;American Samoa;SI;Samoa Americana;Samoa Americana;SI;Samoa américaines;Samoa américaines;Samoa Americana;;American Samoa;Samoa Americana;les Samoa américaines;;;;American Samoa;American Samoa;ASM;ASM;AS;AS;ASM;016;016;AS;ASM;ASM;ASM;5;Oceania;Oceania;Polynesia;East Asia & Pacific;;;;;;;;;;;;;;;;
ATA;ATA;;;NO;;Antarctica;NO;;Antártida;NO;;Antarctique;Antártida;;Antarctica;Antártida;Antarctique;;;;Antarctica;Antarctica;ATA;ATA;AQ;AQ;ATA;010;-099;-99;-99;ATA;ATA;;Antarctica;Antarctica;Antarctica;Antarctica;;;;;;;;;;;;;;;;
ATF;ATF;ATF;;NO;;French Southern and Antarctic Lands;NO;;Tierras Australes y Antárticas Francesas;NO;;Terres australes et antarctiques françaises;Terras Austrais e Antárticas Francesas;;French Southern and Antarctic Lands;Tierras Australes y Antárticas Francesas;Terres australes et antarctiques françaises;;;;French Southern and Antarctic Lands;French Southern and Antarctic Lands;ATF;;TF;TF;ATF;260;-099;-99;-99;ATF;ATF;;Africa;Seven seas (open ocean);Seven seas (open ocean);Sub-Saharan Africa;;;;;;;;;;;;;;;;
ATG;ATG;ATG;ATG;SI;Antigua and Barbuda;Antigua and Barbuda;SI;Antigua y Barbuda;Antigua y Barbuda;SI;Antigua-et-Barbuda;Antigua-et-Barbuda;Antígua e Barbuda;;Antigua and Barbuda;Antigua y Barbuda;Antigua-et-Barbuda;;;;Antigua and Barbuda;Antigua and Barbuda;ATG;ATG;AG;AG;ATG;028;028;AG;ATG;ATG;ATG;8;Americas;Americas;Caribbean;Latin America & Caribbean;;;;;;;;;;;;;;;;
AUS;AUS;AUS;AUS;SI;Australia;Australia;SI;Australia;Australia;SI;Australie;Australie;Austrália;;Australia;Australia;l'Australie;;;;Australia;Australia;AUS;AUS;AU;AU;AUS;036;036;AU;AUS;AUS;AUS;10;Oceania;Oceania;Australia and New Zealand;East Asia & Pacific;;;;;;;;;;;;;;;;
AUT;AUT;AUT;AUT;SI;Austria;Austria;SI;Austria;Austria;SI;Autriche;Autriche;Áustria;;the Republic of Austria;la República de Austria;la République d'Autriche;;;;Austria;Austria;AUT;AUT;A;AT;AUT;040;040;AT;AUT;AUT;AUT;11;Europe;Europe;Western Europe;Europe & Central Asia;;;;;;;;;;;;;;;;
AZE;AZE;AZE;AZE;SI;Azerbaijan;Azerbaijan;SI;Azerbaiyán;Azerbaiyán;SI;Azerbaïdjan;Azerbaïdjan;Azerbaijão;;the Republic of Azerbaijan;la República de Azerbaiyán;la République d'Azerbaïdjan;;;;Azerbaijan;Azerbaijan;AZE;AZE;AZ;AZ;AZE;031;031;AZ;AZE;AZE;AZE;52;Asia;Asia;Western Asia;Europe & Central Asia;;;;;;;;;;;;;;;;
BDI;BDI;BDI;BDI;SI;Burundi;Burundi;SI;Burundi;Burundi;SI;Burundi;Burundi;Burundi;;the Republic of Burundi;la República de Burundi;la République du Burundi;;;;Burundi;Burundi;BDI;BDI;BI;BI;BDI;108;108;BI;BDI;BDI;BDI;29;Africa;Africa;Eastern Africa;Sub-Saharan Africa;;;;;;;;;;;;;;;;
BEL;BEL;BEL;BEL;SI;Belgium;Belgium;SI;Bélgica;Bélgica;SI;Belgique;Belgique;Bélgica;;the Kingdom of Belgium;el Reino de Bélgica;le Royaume de Belgique;;;;Belgium;Belgium;BEL;BEL;B;BE;BEL;056;056;BE;BEL;BEL;BEL;255;Europe;Europe;Western Europe;Europe & Central Asia;;;;;;;;;;;;;;;;
BEN;BEN;BEN;BEN;SI;Benin;Benin;SI;Benin;Benin;SI;Bénin;Bénin;Benim;;the Republic of Benin;la República de Benin;la République du Bénin;;;;Benin;Benin;BEN;BEN;BJ;BJ;BEN;204;204;BJ;BEN;BEN;BEN;53;Africa;Africa;Western Africa;Sub-Saharan Africa;;;;;;;;;;;;;;;;
BES;BES;BES;;NO;;Bonaire, Sint Eustatius and Saba;NO;;Bonaire, Sint Eustatius y Saba;NO;;Bonaire, Sint Eustatius et Saba;Bonaire, Santo Eustáquio e Saba;;Bonaire, Sint Eustatius and Saba;Bonaire, Sint Eustatius y Saba;Bonaire, Sint Eustatius et Saba;;;;Bonaire, Sint Eustatius and Saba;Bonaire, Sint Eustatius and Saba;;BES;;;;;;;;;;;Americas;;;;;;;;;;;;;;;;;;;
BFA;BFA;BFA;BFA;SI;Burkina Faso;Burkina Faso;SI;Burkina Faso;Burkina Faso;SI;Burkina Faso;Burkina Faso;Burkina Faso;;Burkina Faso;Burkina Faso;le Burkina Faso;;;;Burkina Faso;Burkina Faso;BFA;BFA;BF;BF;BFA;854;854;BF;BFA;BFA;BFA;233;Africa;Africa;Western Africa;Sub-Saharan Africa;;;;;;;;;;;;;;;;
BGD;BGD;BGD;BGD;SI;Bangladesh;Bangladesh;SI;Bangladesh;Bangladesh;SI;Bangladesh;Bangladesh;Bangladesh;;the People's Republic of Bangladesh;la República Popular de Bangladesh;la République populaire du Bangladesh;;;;Bangladesh;Bangladesh;BGD;BGD;BD;BD;BGD;050;050;BD;BGD;BGD;BGD;16;Asia;Asia;Southern Asia;South Asia;;;;;;;;;;;;;;;;
BGR;BGR;BGR;BGR;SI;Bulgaria;Bulgaria;SI;Bulgaria;Bulgaria;SI;Bulgarie;Bulgarie;Bulgária;;the Republic of Bulgaria;la República de Bulgaria;la République de Bulgarie;;;;Bulgaria;Bulgaria;BGR;BGR;BG;BG;BGR;100;100;BG;BGR;BGR;BGR;27;Europe;Europe;Eastern Europe;Europe & Central Asia;;;;;;;;;;;;;;;;
BHR;BHR;BHR;BHR;SI;Bahrain;Bahrain;SI;Bahrein;Bahrein;SI;Bahreïn;Bahreïn;Bahrain;;the Kingdom of Bahrain;el Reino de Bahrein;le Royaume de Bahreïn;;;;Bahrain;Bahrain;BHR;BHR;BH;BH;BHR;048;048;BH;BHR;BHR;BHR;13;Asia;Asia;Western Asia;Middle East & North Africa;;;;;;;;;;;;;;;;
BHS;BHS;BHS;BHS;SI;Bahamas;Bahamas;SI;Bahamas;Bahamas;SI;Bahamas;Bahamas;Bahamas;;the Commonwealth of the Bahamas;el Commonwealth de las Bahamas;le Commonwealth des Bahamas;;;;Bahamas;The Bahamas;BHS;BHS;BS;BS;BHS;044;044;BS;BHS;BHS;BHS;12;Americas;Americas;Caribbean;Latin America & Caribbean;;;;;;;;;;;;;;;;
BIH;BIH;BIH;BIH;SI;Bosnia and Herzegovina;Bosnia and Herzegovina;SI;Bosnia y Herzegovina;Bosnia y Herzegovina;SI;Bosnie-Herzégovine;Bosnie-Herzégovine;Bósnia e Herzegovina;;Bosnia and Herzegovina;Bosnia y Herzegovina;la Bosnie-Herzégovine;;;;Bosnia and Herzegovina;Bosnia and Herzegovina;BIH;BIH;BiH;BA;BIH;070;070;BA;BIH;BIH;BIH;80;Europe;Europe;Southern Europe;Europe & Central Asia;;;;;;;;;;;;;;;;
BLM;BLM;BLM;;NO;;Saint Barthélemy;NO;;San Bartolomé;NO;;Saint-Barthélemy;São Bartolomeu;;Saint Barthelemy;San Bartolomé;Saint-Barthélemy;;;;Saint-Barthelemy;Saint Barthelemy;BLM;---;BL;BL;BLM;652;652;-99;-99;BLM;BLM;;Americas;Americas;Caribbean;Latin America & Caribbean;;;;;;;;;;;;;;;;
BLR;BLR;BLR;BLR;SI;Belarus;Belarus;SI;Belarús;Belarús;SI;Bélarus;Bélarus;Bielorrússia;;the Republic of Belarus;la República de Belarús;la République du Bélarus;;;;Belarus;Belarus;BLR;BLR;BY;BY;BLR;112;112;BY;BLR;BLR;BLR;57;Europe;Europe;Eastern Europe;Europe & Central Asia;;;;;;;;;;;;;;;;
BLZ;BLZ;BLZ;BLZ;SI;Belize;Belize;SI;Belice;Belice;SI;Belize;Belize;Belize;;Belize;Belice;le Belize;;;;Belize;Belize;BLZ;BLZ;BZ;BZ;BLZ;084;084;BZ;BLZ;BLZ;BLZ;23;Americas;Americas;Central America;Latin America & Caribbean;;;;;;;;;;;;;;;;
BMU;BMU;BMU;BMU;SI;Bermuda;Bermuda;SI;Bermudas;Bermudas;SI;Bermudes;Bermudes;Bermudas;;Bermuda;Bermudas;les Bermudes;;;;Bermuda;Bermuda;BMU;BMU;BM;BM;BMU;060;060;BM;BMU;BMU;BMU;17;Americas;Americas;Northern America;North America;;;;;;;;;;;;;;;;
BOL;BOL;BOL;BOL;NO;Bolivia (Plurinational State of);Bolivia;NO;Bolivia (Estado Plurinacional de);Bolivia;NO;Bolivie (État plurinational de);Bolivie;Bolívia;;the Plurinational State of Bolivia;el Estado Plurinacional de Bolivia;l'État plurinational de Bolivie;;;;Bolivia;Bolivia;BOL;BOL;BO;BO;BOL;068;068;BO;BOL;BOL;BOL;19;Americas;Americas;South America;Latin America & Caribbean;;;;;;;;;;;;;;;;
BRA;BRA;BRA;BRA;SI;Brazil;Brazil;SI;Brasil;Brasil;SI;Brésil;Brésil;Brasil;;the Federative Republic of Brazil;la República Federativa del Brasil;la République fédérative du Brésil;;;;Brazil;Brazil;BRA;BRA;BR;BR;BRA;076;076;BR;BRA;BRA;BRA;21;Americas;Americas;South America;Latin America & Caribbean;;;;;;;;;;;;;;;;
BRB;BRB;BRB;BRB;SI;Barbados;Barbados;SI;Barbados;Barbados;SI;Barbade;Barbade;Barbados;;Barbados;Barbados;la Barbade;;;;Barbados;Barbados;BRB;BRB;BB;BB;BRB;052;052;BB;BRB;BRB;BRB;14;Americas;Americas;Caribbean;Latin America & Caribbean;;;;;;;;;;;;;;;;
BRN;BRN;BRN;;NO;;Brunei Darussalam;NO;;Brunei Darussalam;NO;;Brunéi Darussalam;Brunei;;Brunei Darussalam;Brunei Darussalam;le Brunéi Darussalam;;;;Brunei Darussalam;Brunei;BRN;BRN;BN;BN;BRN;096;096;BN;BRN;BRN;BRN;26;Asia;Asia;South-Eastern Asia;East Asia & Pacific;;;;;;;;;;;;;;;;
BTN;BTN;BTN;BTN;SI;Bhutan;Bhutan;SI;Bhután;Bhután;SI;Bhoutan;Bhoutan;Butão;;the Kingdom of Bhutan;el Reino de Bhután;le Royaume du Bhoutan;;;;Bhutan;Bhutan;BTN;BTN;BT;BT;BTN;064;064;BT;BTN;BTN;BTN;18;Asia;Asia;Southern Asia;South Asia;;;;;;;;;;;;;;;;
BVT;;BVT;;NO;;Bouvet Island;NO;;Isla Bouvet;NO;;Île Bouvet;Bouvet, Ilha;;Bouvet Island;Isla Bouvet;Île Bouvet;;;;;;;;;;;;;;;;;;;;;;;;;;;;;;;;;;;;;
BWA;BWA;BWA;BWA;SI;Botswana;Botswana;SI;Botswana;Botswana;SI;Botswana;Botswana;Botswana;;the Republic of Botswana;la República de Botswana;la République du Botswana;;;;Botswana;Botswana;BWA;BWA;BW;BW;BWA;072;072;BW;BWA;BWA;BWA;20;Africa;Africa;Southern Africa;Sub-Saharan Africa;;;;;;;;;;;;;;;;
CAF;CAF;CAF;CAF;SI;Central African Republic;Central African Republic;SI;República Centroafricana;República Centroafricana;SI;République centrafricaine;République centrafricaine;República Centro-Africana;;the Central African Republic;la República Centroafricana;la République centrafricaine;;;;Central African Republic;Central African Republic;CAF;CAF;CF;CF;CAF;140;140;CF;CAF;CAF;CAF;37;Africa;Africa;Middle Africa;Sub-Saharan Africa;;;;;;;;;;;;;;;;
CAN;CAN;CAN;CAN;SI;Canada;Canada;SI;Canadá;Canadá;SI;Canada;Canada;Canadá;;Canada;el Canadá;le Canada;;;;Canada;Canada;CAN;CAN;CA;CA;CAN;124;124;CA;CAN;CAN;CAN;33;Americas;Americas;Northern America;North America;;;;;;;;;;;;;;;;
CCK;;CCK;;NO;;Cocos (Keeling) Islands;NO;;Islas Cocos (Keeling);NO;;Îles Cocos (Keeling);Ilhas Cocos;;Cocos (Keeling) Islands;Islas Cocos (Keeling);Îles Cocos (Keeling);;;;;;;;;;;;;;;;;;;;;;;;;;;;;;;;;;;;;
CHE;CHE;CHE;CHE;SI;Switzerland;Switzerland;SI;Suiza;Suiza;SI;Suisse;Suisse;Suíça;;the Swiss Confederation;la Confederación Suiza;la Confédération suisse;;;;Switzerland;Switzerland;CHE;CHE;CH;CH;CHE;756;756;CH;CHE;CHE;CHE;211;Europe;Europe;Western Europe;Europe & Central Asia;;;;;;;;;;;;;;;;
CHL;CHL;CHL;CHL;SI;Chile;Chile;SI;Chile;Chile;SI;Chili;Chili;Chile;;the Republic of Chile;la República de Chile;la République du Chili;;;;Chile;Chile;CHL;CHL;CL;CL;CHL;152;152;CL;CHL;CHL;CHL;40;Americas;Americas;South America;Latin America & Caribbean;;;;;;;;;;;;;;;;
CHN;CHN;CHN;CHN;SI;China;China;SI;China;China;SI;Chine;Chine;China;;the People's Republic of China;la República Popular China;la République populaire de Chine;;;;China;China;CHN;CHN;CN;CN;CHN;156;156;CN;CHN;CHN;CHN;351;Asia;Asia;Eastern Asia;East Asia & Pacific;;;;;;;;;;;;;;;;
CIV;CIV;CIV;CIV;SI;Côte d'Ivoire;Côte d'Ivoire;SI;Côte d'Ivoire;Côte d'Ivoire;SI;Côte d'Ivoire;Côte d'Ivoire;Costa do Marfim;;the Republic of Côte d'Ivoire;la República de Côte d'Ivoire;la République de Côte d'Ivoire;;;;C¶te d'Ivoire;Ivory Coast;CIV;CIV;CI;CI;CIV;384;384;CI;CIV;CIV;CIV;107;Africa;Africa;Western Africa;Sub-Saharan Africa;;;;;;;;;;;;;;;;
CMR;CMR;CMR;CMR;SI;Cameroon;Cameroon;SI;Camerún;Camerún;SI;Cameroun;Cameroun;Camarões;;the Republic of Cameroon;la República del Camerún;la République du Cameroun;;;;Cameroon;Cameroon;CMR;CMR;CM;CM;CMR;120;120;CM;CMR;CMR;CMR;32;Africa;Africa;Middle Africa;Sub-Saharan Africa;;;;;;;;;;;;;;;;
COD;COD;COD;COD;SI;Democratic Republic of the Congo;Democratic Republic of the Congo;SI;República Democrática del Congo;República Democrática del Congo;SI;République démocratique du Congo;République démocratique du Congo;República Democrática do Congo;;the Democratic Republic of the Congo;la República Democrática del Congo;la République démocratique du Congo;;;;Democratic Republic of the Congo;Democratic Republic of the Congo;COD;COD;DRC;CD;COD;180;180;ZR;ZAR;COD;COD;250;Africa;Africa;Middle Africa;Sub-Saharan Africa;;;;;;;;;;;;;;;;
COG;COG;COG;COG;SI;Congo;Congo;SI;Congo;Congo;SI;Congo;Congo;Congo;;the Republic of the Congo;la República del Congo;la République du Congo;;;;Republic of Congo;Republic of Congo;COG;COG;CG;CG;COG;178;178;CG;COG;COG;COG;46;Africa;Africa;Middle Africa;Sub-Saharan Africa;;;;;;;;;;;;;;;;
COK;COK;COK;COK;SI;Cook Islands;Cook Islands;SI;Islas Cook;Islas Cook;SI;Îles Cook;Îles Cook;Ilhas Cook;;the Cook Islands;las Islas Cook;les Îles Cook;;;;Cook Islands;Cook Islands;COK;COK;CK;CK;COK;184;184;-99;-99;COK;COK;47;Oceania;Oceania;Polynesia;East Asia & Pacific;;;;;;;;;;;;;;;;
COL;COL;COL;COL;SI;Colombia;Colombia;SI;Colombia;Colombia;SI;Colombie;Colombie;Colômbia;;the Republic of Colombia;la República de Colombia;la République de Colombie;;;;Colombia;Colombia;COL;COL;CO;CO;COL;170;170;CO;COL;COL;COL;44;Americas;Americas;South America;Latin America & Caribbean;;;;;;;;;;;;;;;;
COM;COM;COM;COM;SI;Comoros;Comoros;SI;Comoras;Comoras;SI;Comores;Comores;Comores;;the Union of the Comoros;la Unión de las Comoras;l'Union des Comores;;;;Comoros;Comoros;COM;COM;KM;KM;COM;174;174;KM;COM;COM;COM;45;Africa;Africa;Eastern Africa;Sub-Saharan Africa;;;;;;;;;;;;;;;;
CPV;CPV;CPV;CPV;SI;Cape Verde;Cape Verde;SI;Cabo Verde;Cabo Verde;SI;Cap-Vert;Cap-Vert;Cabo Verde;;the Republic of Cape Verde;la República de Cabo Verde;la République du Cap-Vert;;;;Cape Verde;Cape Verde;CPV;CPV;CV;CV;CPV;132;132;CV;CPV;CPV;CPV;35;Africa;Africa;Western Africa;Sub-Saharan Africa;;;;;;;;;;;;;;;;
CRI;CRI;CRI;CRI;SI;Costa Rica;Costa Rica;SI;Costa Rica;Costa Rica;SI;Costa Rica;Costa Rica;Costa Rica;;the Republic of Costa Rica;la República de Costa Rica;la République du Costa Rica;;;;Costa Rica;Costa Rica;CRI;CRI;CR;CR;CRI;188;188;CR;CRI;CRI;CRI;48;Americas;Americas;Central America;Latin America & Caribbean;;;;;;;;;;;;;;;;
CUB;CUB;CUB;CUB;SI;Cuba;Cuba;SI;Cuba;Cuba;SI;Cuba;Cuba;Cuba;;the Republic of Cuba;la República de Cuba;la République de Cuba;;;;Cuba;Cuba;CUB;CUB;CU;CU;CUB;192;192;CU;CUB;CUB;CUB;49;Americas;Americas;Caribbean;Latin America & Caribbean;;;;;;;;;;;;;;;;
CUW;CUW;CUW;;NO;;Curaçao;NO;;Curaçao;NO;;Curaçao;Curaçao;;Curaçao;Curaçao;Curaçao;;;;Curaçao;Curaçao;CUW;;CW;CW;CUW;531;531;CW;CUW;CUW;CUW;;Americas;Americas;Caribbean;Latin America & Caribbean;;;;;;;;;;;;;;;;
CXR;;CXR;;NO;;Christmas Island;NO;;Isla de Navidad;NO;;Île Christmas;Ilha Christmas;;Christmas Island;Isla de Navidad;Île Christmas;;;;;;;;;;;;;;;;;;;;;;;;;;;;;;;;;;;;;
CYM;CYM;CYM;CYM;SI;Cayman Islands;Cayman Islands;SI;Islas Caimán;Islas Caimán;SI;Îles Caïmanes;Îles Caïmanes;Ilhas Cayman;;Cayman Islands;Islas Caimán;les Îles Caïmanes;;;;Cayman Islands;Cayman Islands;CYM;CYM;KY;KY;CYM;136;136;KY;CYM;CYM;CYM;36;Americas;Americas;Caribbean;Latin America & Caribbean;;;;;;;;;;;;;;;;
CYP;CYP;CYP;CYP;SI;Cyprus;Cyprus;SI;Chipre;Chipre;SI;Chypre;Chypre;Chipre;;the Republic of Cyprus;la República de Chipre;la République de Chypre;;;;Cyprus;Cyprus;CYP;CYP;CY;CY;CYP;196;196;CY;CYP;CYP;CYP;50;Asia;Asia;Western Asia;Europe & Central Asia;;;;;;;;;;;;;;;;
CZE;CZE;CZE;CZE;SI;Czech Republic;Czech Republic;SI;República Checa;República Checa;SI;République tchèque;République tchèque;República Checa;;the Czech Republic;la República Checa;la République tchèque;;;;Czech Republic;Czech Republic;CZE;CZE;CZ;CZ;CZE;203;203;CZ;CZE;CZE;CZE;167;Europe;Europe;Eastern Europe;Europe & Central Asia;;;;;;;;;;;;;;;;
DEU;DEU;DEU;DEU;SI;Germany;Germany;SI;Alemania;Alemania;SI;Allemagne;Allemagne;Alemanha;;the Federal Republic of Germany;la República Federal de Alemania;la République fédérale d'Allemagne;;;;Germany;Germany;DEU;DEU;D;DE;DEU;276;276;DE;DEU;DEU;DEU;79;Europe;Europe;Western Europe;Europe & Central Asia;;;;;;;;;;;;;;;;
DJI;DJI;DJI;DJI;SI;Djibouti;Djibouti;SI;Djibouti;Djibouti;SI;Djibouti;Djibouti;Djibouti;;the Republic of Djibouti;la República de Djibouti;la République de Djibouti;;;;Djibouti;Djibouti;DJI;DJI;DJ;DJ;DJI;262;262;DJ;DJI;DJI;DJI;72;Africa;Africa;Eastern Africa;Middle East & North Africa;;;;;;;;;;;;;;;;
DMA;DMA;DMA;DMA;SI;Dominica;Dominica;SI;Dominica;Dominica;SI;Dominique;Dominique;Dominica;;the Commonwealth of Dominica;el Commonwealth de Dominica;le Commonwealth de la Dominique;;;;Dominica;Dominica;DMA;DMA;DM;DM;DMA;212;212;DM;DMA;DMA;DMA;55;Americas;Americas;Caribbean;Latin America & Caribbean;;;;;;;;;;;;;;;;
DNK;DNK;DNK;DNK;SI;Denmark;Denmark;SI;Dinamarca;Dinamarca;SI;Danemark;Danemark;Dinamarca;;the Kingdom of Denmark;el Reino de Dinamarca;le Royaume du Danemark;;;;Denmark;Denmark;DNK;DNK;DK;DK;DNK;208;208;DK;DNK;DNK;DNK;54;Europe;Europe;Northern Europe;Europe & Central Asia;;;;;;;;;;;;;;;;
DOM;DOM;DOM;DOM;SI;Dominican Republic;Dominican Republic;SI;República Dominicana;República Dominicana;SI;République dominicaine;République dominicaine;República Dominicana;;the Dominican Republic;la República Dominicana;la République dominicaine;;;;Dominican Republic;Dominican Republic;DOM;DOM;DO;DO;DOM;214;214;DO;DOM;DOM;DOM;56;Americas;Americas;Caribbean;Latin America & Caribbean;;;;;;;;;;;;;;;;
DZA;DZA;DZA;DZA;SI;Algeria;Algeria;SI;Argelia;Argelia;SI;Algérie;Algérie;Argélia;;the People's Democratic Republic of Algeria;la República Argelina Democrática y Popular;la République algérienne démocratique et populaire;;;;Algeria;Algeria;DZA;DZA;DZ;DZ;DZA;012;012;DZ;DZA;DZA;DZA;4;Africa;Africa;Northern Africa;Middle East & North Africa;;;;;;;;;;;;;;;;
ECU;ECU;ECU;ECU;SI;Ecuador;Ecuador;SI;Ecuador;Ecuador;SI;Équateur;Équateur;Equador;;the Republic of Ecuador;la República del Ecuador;la République de l'Équateur;;;;Ecuador;Ecuador;ECU;ECU;EC;EC;ECU;218;218;EC;ECU;ECU;ECU;58;Americas;Americas;South America;Latin America & Caribbean;;;;;;;;;;;;;;;;
EGY;EGY;EGY;EGY;SI;Egypt;Egypt;SI;Egipto;Egipto;SI;Égypte;Égypte;Egito;;the Arab Republic of Egypt;la República Árabe de Egipto;la République arabe d'Égypte;;;;Egypt;Egypt;EGY;EGY;EG;EG;EGY;818;818;EG;EGY;EGY;EGY;59;Africa;Africa;Northern Africa;Middle East & North Africa;;;;;;;;;;;;;;;;
ERI;ERI;ERI;ERI;SI;Eritrea;Eritrea;SI;Eritrea;Eritrea;SI;Érythrée;Érythrée;Eritreia;;Eritrea;Eritrea;l'Érythrée;;;;Eritrea;Eritrea;ERI;ERI;ER;ER;ERI;232;232;ER;ERI;ERI;ERI;178;Africa;Africa;Eastern Africa;Sub-Saharan Africa;;;;;;;;;;;;;;;;
ESP;ESP;ESP;ESP;SI;Spain;Spain;SI;España;España;SI;Espagne;Espagne;Espanha;;the Kingdom of Spain;el Reino de España;le Royaume d'Espagne;;;;Spain;Spain;ESP;ESP;E;ES;ESP;724;724;ES;ESP;ESP;ESP;203;Europe;Europe;Southern Europe;Europe & Central Asia;;;;;;;;;;;;;;;;
EST;EST;EST;EST;SI;Estonia;Estonia;SI;Estonia;Estonia;SI;Estonie;Estonie;Estónia;;the Republic of Estonia;la República de Estonia;la République d'Estonie;;;;Estonia;Estonia;EST;EST;EST;EE;EST;233;233;EE;EST;EST;EST;63;Europe;Europe;Northern Europe;Europe & Central Asia;;;;;;;;;;;;;;;;
ETH;ETH;ETH;ETH;SI;Ethiopia;Ethiopia;SI;Etiopía;Etiopía;SI;Éthiopie;Éthiopie;Etiópia;;the Federal Democratic Republic of Ethiopia;la República Democrática Federal de Etiopía;la République fédérale démocratique d'Éthiopie;;;;Ethiopia;Ethiopia;ETH;ETH;ET;ET;ETH;231;231;ET;ETH;ETH;ETH;238;Africa;Africa;Eastern Africa;Sub-Saharan Africa;;;;;;;;;;;;;;;;
FIN;FIN;FIN;FIN;SI;Finland;Finland;SI;Finlandia;Finlandia;SI;Finlande;Finlande;Finlândia;;the Republic of Finland;la República de Finlandia;la République de Finlande;;;;Finland;Finland;FIN;FIN;FIN;FI;FIN;246;246;FI;FIN;FIN;FIN;67;Europe;Europe;Northern Europe;Europe & Central Asia;;;;;;;;;;;;;;;;
FJI;FJI;FJI;FJI;SI;Fiji;Fiji;SI;Fiji;Fiji;SI;Fidji;Fidji;Fiji;;the Republic of Fiji;la República de Fiji;la République des Fidji;;;;Fiji;Fiji;FJI;FJI;FJ;FJ;FJI;242;242;FJ;FJI;FJI;FJI;66;Oceania;Oceania;Melanesia;East Asia & Pacific;;;;;;;;;;;;;;;;
FLK;FLK;FLK;FLK;SI;Falkland Islands;Falkland Islands;SI;Islas Malvinas;Islas Malvinas;NO;Îles Falkland;Îles Malvinas;Ilhas Malvinas (Falkland);;the Falkland Islands (Malvinas);las Islas Malvinas (Falkland Islands);les Îles Falkland (Malvinas);;;;Falkland Islands;Falkland Islands;FLK;FLK;FK;FK;FLK;238;238;-99;-99;FLK;FLK;65;Americas;Americas;South America;Latin America & Caribbean;;;;;;;;;;;;;;;;
FRA;FRA;FRA;FRA;SI;France;France;SI;Francia;Francia;SI;France;France;França;;the French Republic;la República Francesa;la République française;;;;France;France;FRA;FRA;F;FR;FRA;250;250;FR;FRA;FRA;FRA;68;Europe;Europe;Western Europe;Europe & Central Asia;;;;;;;;;;;;;;;;
FRO;FRO;FRO;FRO;SI;Faroe Islands;Faroe Islands;SI;Islas Feroe;Islas Feroe;SI;Îles Féroé;Îles Féroé;Ilhas Feroé;;Faroe Islands;las Islas Feroe;les Îles Féroé;;;;Faeroe Islands;Faroe Islands;FRO;FRO;FO;FO;FRO;234;234;FO;FRO;FRO;FRO;64;Europe;Europe;Northern Europe;Europe & Central Asia;;;;;;;;;;;;;;;;
FSM;FSM;FSM;FSM;NO;Micronesia (Federated States of);Micronesia;NO;Micronesia (Estados Federados de);Micronesia;NO;Micronésie (États fédérés de);Micronésie;Micronésia;;the Federated States of Micronesia;los Estados Federados de Micronesia;les États fédérés de Micronésie;;;;Federated States of Micronesia;Federated States of Micronesia;FSM;FSM;FSM;FM;FSM;583;583;FM;FSM;FSM;FSM;145;Oceania;Oceania;Micronesia;East Asia & Pacific;;;;;;;;;;;;;;;;
GAB;GAB;GAB;GAB;SI;Gabon;Gabon;SI;Gabón;Gabón;SI;Gabon;Gabon;Gabão;;the Gabonese Republic;la República Gabonesa;la République gabonaise;;;;Gabon;Gabon;GAB;GAB;GA;GA;GAB;266;266;GA;GAB;GAB;GAB;74;Africa;Africa;Middle Africa;Sub-Saharan Africa;;;;;;;;;;;;;;;;
GBR;GBR;GBR;GBR;SI;United Kingdom;United Kingdom;SI;Reino Unido;Reino Unido;SI;Royaume-Uni;Royaume-Uni;Reino Unido;;the United Kingdom of Great Britain and Northern Ireland;el Reino Unido de Gran Bretaña e Irlanda del Norte;le Royaume-Uni de Grande-Bretagne et d'Irlande du Nord;;;;United Kingdom;United Kingdom;GBR;GBR;GB;GB;GBR;826;826;GB;GBR;GBR;GBR;229;Europe;Europe;Northern Europe;Europe & Central Asia;;;;;;;;;;;;;;;;
GEO;GEO;GEO;GEO;SI;Georgia;Georgia;SI;Georgia;Georgia;SI;Géorgie;Géorgie;Geórgia;;Georgia;Georgia;la Géorgie;;;;Georgia;Georgia;GEO;GEO;GE;GE;GEO;268;268;GE;GEO;GEO;GEO;73;Asia;Asia;Western Asia;Europe & Central Asia;;;;;;;;;;;;;;;;
GGY;GGY;GGY;;NO;;Guernsey;NO;;Guernsey;NO;;Guernesey;Guernsey;;Guernsey;Guernsey;Guernesey;;;;Guernsey;Guernsey;GGY;;GG;GG;GGY;831;831;JG;CHI;GGY;GGY;;Europe;Europe;Northern Europe;Europe & Central Asia;;;;;;;;;;;;;;;;
GHA;GHA;GHA;GHA;SI;Ghana;Ghana;SI;Ghana;Ghana;SI;Ghana;Ghana;Gana;;the Republic of Ghana;la República de Ghana;la République du Ghana;;;;Ghana;Ghana;GHA;GHA;GH;GH;GHA;288;288;GH;GHA;GHA;GHA;81;Africa;Africa;Western Africa;Sub-Saharan Africa;;;;;;;;;;;;;;;;
GIB;GIB;GIB;GIB;SI;Gibraltar;Gibraltar;SI;Gibraltar;Gibraltar;SI;Gibraltar;Gibraltar;Gibraltar;;Gibraltar;Gibraltar;Gibraltar;;;;;;;GIB;;;;;;;;;;82;Europe;;;;;;;;;;;;;;;;;;;
GIN;GIN;GIN;GIN;SI;Guinea;Guinea;SI;Guinea;Guinea;SI;Guinée;Guinée;Guiné-Conacri;;the Republic of Guinea;la República de Guinea;la République de Guinée;;;;Guinea;Guinea;GIN;GIN;GN;GN;GIN;324;324;GN;GIN;GIN;GIN;90;Africa;Africa;Western Africa;Sub-Saharan Africa;;;;;;;;;;;;;;;;
GLP;GLP;GLP;;NO;;Guadeloupe;NO;;Guadalupe;NO;;Guadeloupe;Guadalupe;;Guadeloupe;Guadalupe;la Guadeloupe;;;;;;;GLP;;;;;;;;;;87;Americas;;;;;;;;;;;;;;;;;;;
GMB;GMB;GMB;GMB;SI;Gambia;Gambia;SI;Gambia;Gambia;SI;Gambie;Gambie;Gâmbia;;the Republic of the Gambia;la República de Gambia;la République de Gambie;;;;The Gambia;Gambia;GMB;GMB;GM;GM;GMB;270;270;GM;GMB;GMB;GMB;75;Africa;Africa;Western Africa;Sub-Saharan Africa;;;;;;;;;;;;;;;;
GNB;GNB;GNB;GNB;SI;Guinea-Bissau;Guinea-Bissau;SI;Guinea-Bissau;Guinea-Bissau;SI;Guinée-Bissau;Guinée-Bissau;Guiné-Bissau;;the Republic of Guinea-Bissau;la República de Guinea-Bissau;la République de Guinée-Bissau;;;;Guinea-Bissau;Guinea Bissau;GNB;GNB;GW;GW;GNB;624;624;GW;GNB;GNB;GNB;175;Africa;Africa;Western Africa;Sub-Saharan Africa;;;;;;;;;;;;;;;;
GNQ;GNQ;GNQ;GNQ;SI;Equatorial Guinea;Equatorial Guinea;SI;Guinea Ecuatorial;Guinea Ecuatorial;SI;Guinée équatoriale;Guinée équatoriale;Guiné Equatorial;;the Republic of Equatorial Guinea;la República de Guinea Ecuatorial;la République de Guinée équatoriale;;;;Equatorial Guinea;Equatorial Guinea;GNQ;GNQ;GQ;GQ;GNQ;226;226;GQ;GNQ;GNQ;GNQ;61;Africa;Africa;Middle Africa;Sub-Saharan Africa;;;;;;;;;;;;;;;;
GRC;GRC;GRC;GRC;SI;Greece;Greece;SI;Grecia;Grecia;SI;Grèce;Grèce;Grécia;;the Hellenic Republic;la República Helénica;la République hellénique;;;;Greece;Greece;GRC;GRC;GR;GR;GRC;300;300;GR;GRC;GRC;GRC;84;Europe;Europe;Southern Europe;Europe & Central Asia;;;;;;;;;;;;;;;;
GRD;GRD;GRD;GRD;SI;Grenada;Grenada;SI;Granada;Granada;SI;Grenade;Grenade;Grenada;;Grenada;Granada;la Grenade;;;;Grenada;Grenada;GRD;GRD;GD;GD;GRD;308;308;GD;GRD;GRD;GRD;86;Americas;Americas;Caribbean;Latin America & Caribbean;;;;;;;;;;;;;;;;
GRL;GRL;GRL;;NO;;Greenland;NO;;Groenlandia;NO;;Groenland;Groenlândia;;Greenland;Groenlandia;Groenland;;;;Greenland;Greenland;GRL;;GL;GL;GRL;304;304;GL;GRL;GRL;GRL;85;Americas;Americas;Northern America;Europe & Central Asia;;;;;;;;;;;;;;;;
GTM;GTM;GTM;GTM;SI;Guatemala;Guatemala;SI;Guatemala;Guatemala;SI;Guatemala;Guatemala;Guatemala;;the Republic of Guatemala;la República de Guatemala;la République du Guatemala;;;;Guatemala;Guatemala;GTM;GTM;GT;GT;GTM;320;320;GT;GTM;GTM;GTM;89;Americas;Americas;Central America;Latin America & Caribbean;;;;;;;;;;;;;;;;
GUF;GUF;GUF;;NO;;French Guiana;NO;;Guayana francesa;NO;;Guyane française;Guiana Francesa;;French Guiana;Guayana francesa;la Guyane française;;;;;;;GUF;;;;;;;;;;69;Americas;;;;;;;;;;;;;;;;;;;
GUM;GUM;GUM;GUM;SI;Guam;Guam;SI;Guam;Guam;SI;Guam;Guam;Guam;;Guam;Guam;Guam;;;;Guam;Guam;GUM;GUM;GU;GU;GUM;316;316;GU;GUM;GUM;GUM;88;Oceania;Oceania;Micronesia;East Asia & Pacific;;;;;;;;;;;;;;;;
GUY;GUY;GUY;GUY;SI;Guyana;Guyana;SI;Guyana;Guyana;SI;Guyana;Guyana;Guiana;;the Republic of Guyana;la República de Guyana;la République du Guyana;;;;Guyana;Guyana;GUY;GUY;GY;GY;GUY;328;328;GY;GUY;GUY;GUY;91;Americas;Americas;South America;Latin America & Caribbean;;;;;;;;;;;;;;;;
HKG;;HKG;;NO;;Hong Kong S.A.R.;NO;;Hong Kong;NO;;Hong Kong;Hong Kong;;Hong Kong S.A.R.;Región Administrativa Especial de Hong Kong de la República Popular China;Région administrative spéciale de Hong Kong de la République populaire de Chine;;;;Hong Kong;Hong Kong S.A.R.;HKG;;HK;HK;HKG;344;344;HK;HKG;HKG;HKG;;Asia;Asia;Eastern Asia;East Asia & Pacific;;;;;;;;;;;;;;;;
HMD;HMD;HMD;;NO;;Heard Island and McDonald Islands;NO;;Islas Heard y McDonald;NO;;Îles Heard-et-MacDonald;Ilha Heard e Ilhas McDonald;;Heard Island and McDonald Islands;Islas Heard y McDonald;Îles Heard-et-MacDonald;;;;Heard I. and McDonald Islands;Heard Island and McDonald Islands;HMD;;HM;HM;HMD;334;-099;-99;-99;HMD;HMD;;Africa;Seven seas (open ocean);Seven seas (open ocean);Sub-Saharan Africa;;;;;;;;;;;;;;;;
HND;HND;HND;HND;SI;Honduras;Honduras;SI;Honduras;Honduras;SI;Honduras;Honduras;Honduras;;the Republic of Honduras;la República de Honduras;la République du Honduras;;;;Honduras;Honduras;HND;HND;HN;HN;HND;340;340;HN;HND;HND;HND;95;Americas;Americas;Central America;Latin America & Caribbean;;;;;;;;;;;;;;;;
HRV;HRV;HRV;HRV;SI;Croatia;Croatia;SI;Croacia;Croacia;SI;Croatie;Croatie;Croácia;;the Republic of Croatia;la República de Croacia;la République de Croatie;;;;Croatia;Croatia;HRV;HRV;HR;HR;HRV;191;191;HR;HRV;HRV;HRV;98;Europe;Europe;Southern Europe;Europe & Central Asia;;;;;;;;;;;;;;;;
HTI;HTI;HTI;HTI;SI;Haiti;Haiti;SI;Haití;Haití;SI;Haïti;Haïti;Haiti;;the Republic of Haiti;la República de Haití;la République d'Haïti;;;;Haiti;Haiti;HTI;HTI;HT;HT;HTI;332;332;HT;HTI;HTI;HTI;93;Americas;Americas;Caribbean;Latin America & Caribbean;;;;;;;;;;;;;;;;
HUN;HUN;HUN;HUN;SI;Hungary;Hungary;SI;Hungría;Hungría;SI;Hongrie;Hongrie;Hungria;;Hungary;Hungría;Hongrie (la);;;;Hungary;Hungary;HUN;HUN;HU;HU;HUN;348;348;HU;HUN;HUN;HUN;97;Europe;Europe;Eastern Europe;Europe & Central Asia;;;;;;;;;;;;;;;;
IDN;IDN;IDN;IDN;SI;Indonesia;Indonesia;SI;Indonesia;Indonesia;SI;Indonésie;Indonésie;Indonésia;;the Republic of Indonesia;la República de Indonesia;la République d'Indonésie;;;;Indonesia;Indonesia;IDN;IDN;INDO;ID;IDN;360;360;ID;IDN;IDN;IDN;101;Asia;Asia;South-Eastern Asia;East Asia & Pacific;;;;;;;;;;;;;;;;
IMN;IMN;IMN;;NO;;Isle of Man;NO;;Isla de Man;NO;;Île de Man;Ilha de Man;;Isle of Man;Isla de Man;Île de Man;;;;Isle of Man;Isle of Man;IMN;;IM;IM;IMN;833;833;IM;IMY;IMN;IMN;264;Europe;Europe;Northern Europe;Europe & Central Asia;;;;;;;;;;;;;;;;
IND;IND;IND;IND;SI;India;India;SI;India;India;SI;Inde;Inde;Índia;;the Republic of India;la República de la India;la République de l'Inde;;;;India;India;IND;IND;IND;IN;IND;356;356;IN;IND;IND;IND;100;Asia;Asia;Southern Asia;South Asia;;;;;;;;;;;;;;;;
IOA;IOA;;;NO;;Indian Ocean Territories;NO;;Territorio del Océano Índico;NO;;Territoire de l'océan Indien;Território do Oceano Índico;;Indian Ocean Territories;Territorio del Océano Índico;Territoire de l'océan Indien;;;;Indian Ocean Territories;Indian Ocean Territories;IOA;;IOT;-99;-99;-99;-099;-99;-99;AUS;AUS;;Asia;Seven seas (open ocean);Seven seas (open ocean);East Asia & Pacific;;;;;;;;;;;;;;;;
IOT;IOT;IOT;;NO;;British Indian Ocean Territory;NO;;Territorio Británico del Océano Índico;NO;;Territoire britannique de l'océan Indien;Território Britânico do Oceano Índico;;British Indian Ocean Territory;Territorio Británico del Océano Índico;Territoire britannique de l'océan Indien;;;;British Indian Ocean Territory;British Indian Ocean Territory;IOT;;IO;IO;IOT;086;-099;-99;-99;IOT;IOT;;Africa;Seven seas (open ocean);Seven seas (open ocean);Sub-Saharan Africa;;;;;;;;;;;;;;;;
IRL;IRL;IRL;IRL;SI;Ireland;Ireland;SI;Irlanda;Irlanda;SI;Irlande;Irlande;Irlanda;;Ireland;Irlanda;l'Irlande;;;;Ireland;Ireland;IRL;IRL;IRL;IE;IRL;372;372;IE;IRL;IRL;IRL;104;Europe;Europe;Northern Europe;Europe & Central Asia;;;;;;;;;;;;;;;;
IRN;IRN;IRN;IRN;NO;Iran (Islamic Republic of);Iran;NO;Irán (República Islámica del);Irán;NO;Iran (République islamique d');Iran;Irã;;the Islamic Republic of Iran;la República Islámica del Irán;la République islamique d'Iran;;;;Iran;Iran;IRN;IRN;IRN;IR;IRN;364;364;IR;IRN;IRN;IRN;102;Asia;Asia;Southern Asia;Middle East & North Africa;;;;;;;;;;;;;;;;
IRQ;IRQ;IRQ;IRQ;SI;Iraq;Iraq;SI;Iraq;Iraq;SI;Iraq;Iraq;Iraque;;the Republic of Iraq;la República del Iraq;la République d'Iraq;;;;Iraq;Iraq;IRQ;IRQ;IRQ;IQ;IRQ;368;368;IQ;IRQ;IRQ;IRQ;103;Asia;Asia;Western Asia;Middle East & North Africa;;;;;;;;;;;;;;;;
ISL;ISL;ISL;ISL;SI;Iceland;Iceland;SI;Islandia;Islandia;SI;Islande;Islande;Islândia;;the Republic of Iceland;la República de Islandia;la République d'Islande;;;;Iceland;Iceland;ISL;ISL;IS;IS;ISL;352;352;IS;ISL;ISL;ISL;99;Europe;Europe;Northern Europe;Europe & Central Asia;;;;;;;;;;;;;;;;
ISR;ISR;ISR;ISR;SI;Israel;Israel;SI;Israel;Israel;SI;Israël;Israël;Israel;;the State of Israel;el Estado de Israel;l'État d'Israël;;;;Israel;Israel;ISR;ISR;IS;IL;ISR;376;376;IL;ISR;ISR;ISR;105;Asia;Asia;Western Asia;Middle East & North Africa;;;;;;;;;;;;;;;;
ITA;ITA;ITA;ITA;SI;Italy;Italy;SI;Italia;Italia;SI;Italie;Italie;Itália;;the Republic of Italy;la República Italiana;la République italienne;;;;Italy;Italy;ITA;ITA;I;IT;ITA;380;380;IT;ITA;ITA;ITA;106;Europe;Europe;Southern Europe;Europe & Central Asia;;;;;;;;;;;;;;;;
JAM;JAM;JAM;JAM;SI;Jamaica;Jamaica;SI;Jamaica;Jamaica;SI;Jamaïque;Jamaïque;Jamaica;;Jamaica;Jamaica;la Jamaïque;;;;Jamaica;Jamaica;JAM;JAM;J;JM;JAM;388;388;JM;JAM;JAM;JAM;109;Americas;Americas;Caribbean;Latin America & Caribbean;;;;;;;;;;;;;;;;
JEY;JEY;JEY;;NO;;Jersey;NO;;Jersey;NO;;Jersey;Jersey;;Jersey;Jersey;Jersey;;;;Jersey;Jersey;JEY;;JE;JE;JEY;832;832;JG;CHI;JEY;JEY;;Europe;Europe;Northern Europe;Europe & Central Asia;;;;;;;;;;;;;;;;
JOR;JOR;JOR;JOR;SI;Jordan;Jordan;SI;Jordania;Jordania;SI;Jordanie;Jordanie;Jordânia;;the Hashemite Kingdom of Jordan;el Reino Hachemita de Jordania;le Royaume hachémite de Jordanie;;;;Jordan;Jordan;JOR;JOR;J;JO;JOR;400;400;JO;JOR;JOR;JOR;112;Asia;Asia;Western Asia;Middle East & North Africa;;;;;;;;;;;;;;;;
JPN;JPN;JPN;JPN;SI;Japan;Japan;SI;Japón;Japón;SI;Japon;Japon;Japão;;Japan;el Japón;le Japon;;;;Japan;Japan;JPN;JPN;J;JP;JPN;392;392;JP;JPN;JPN;JPN;110;Asia;Asia;Eastern Asia;East Asia & Pacific;;;;;;;;;;;;;;;;
KAZ;KAZ;KAZ;KAZ;SI;Kazakhstan;Kazakhstan;SI;Kazajstán;Kazajstán;SI;Kazakhstan;Kazakhstan;Cazaquistão;;the Republic of Kazakhstan;la República de Kazajstán;la République du Kazakhstan;;;;Kazakhstan;Kazakhstan;KAZ;KAZ;KZ;KZ;KAZ;398;398;KZ;KAZ;KAZ;KAZ;108;Asia;Asia;Central Asia;Europe & Central Asia;;;;;;;;;;;;;;;;
KEN;KEN;KEN;KEN;SI;Kenya;Kenya;SI;Kenya;Kenya;SI;Kenya;Kenya;Quênia;;the Republic of Kenya;la República de Kenya;la République du Kenya;;;;Kenya;Kenya;KEN;KEN;KE;KE;KEN;404;404;KE;KEN;KEN;KEN;114;Africa;Africa;Eastern Africa;Sub-Saharan Africa;;;;;;;;;;;;;;;;
KGZ;KGZ;KGZ;KGZ;SI;Kyrgyzstan;Kyrgyzstan;SI;Kirguistán;Kirguistán;SI;Kirghizistan;Kirghizistan;Quirguistão;;the Kyrgyz Republic;la República Kirguisa;la République kirghize;;;;Kyrgyzstan;Kyrgyzstan;KGZ;KGZ;KG;KG;KGZ;417;417;KG;KGZ;KGZ;KGZ;113;Asia;Asia;Central Asia;Europe & Central Asia;;;;;;;;;;;;;;;;
KHM;KHM;KHM;KHM;SI;Cambodia;Cambodia;SI;Camboya;Camboya;SI;Cambodge;Cambodge;Cambodja;;the Kingdom of Cambodia;el Reino de Camboya;le Royaume du Cambodge;;;;Cambodia;Cambodia;KHM;KHM;KH;KH;KHM;116;116;KH;KHM;KHM;KHM;115;Asia;Asia;South-Eastern Asia;East Asia & Pacific;;;;;;;;;;;;;;;;
KIR;KIR;KIR;KIR;SI;Kiribati;Kiribati;SI;Kiribati;Kiribati;SI;Kiribati;Kiribati;Kiribati;;the Republic of Kiribati;la República de Kiribati;la République de Kiribati;;;;Kiribati;Kiribati;KIR;KIR;KI;KI;KIR;296;296;KI;KIR;KIR;KIR;83;Oceania;Oceania;Micronesia;East Asia & Pacific;;;;;;;;;;;;;;;;
KNA;KNA;KNA;KNA;SI;Saint Kitts and Nevis;Saint Kitts and Nevis;SI;Saint Kitts y Nevis;Saint Kitts y Nevis;SI;Saint-Kitts-et-Nevis;Saint-Kitts-et-Nevis;São Cristóvão e Névis;;Saint Kitts and Nevis;Saint Kitts y Nevis;Saint-Kitts-et-Nevis;;;;Saint Kitts and Nevis;Saint Kitts and Nevis;KNA;KNA;KN;KN;KNA;659;659;KN;KNA;KNA;KNA;188;Americas;Americas;Caribbean;Latin America & Caribbean;;;;;;;;;;;;;;;;
KOR;KOR;KOR;KOR;SI;Republic of Korea;Republic of Korea;SI;República de Corea;República de Corea;SI;République de Corée;République de Corée;República da Coreia;;the Republic of Korea;la República de Corea;la République de Corée;;;;Republic of Korea;South Korea;KOR;KOR;KR;KR;KOR;410;410;KR;KOR;KOR;KOR;117;Asia;Asia;Eastern Asia;East Asia & Pacific;;;;;;;;;;;;;;;;
KWT;KWT;KWT;KWT;SI;Kuwait;Kuwait;SI;Kuwait;Kuwait;SI;Koweït;Koweït;Kuwait;;the State of Kuwait;el Estado de Kuwait;l'État du Koweït;;;;Kuwait;Kuwait;KWT;KWT;KW;KW;KWT;414;414;KW;KWT;KWT;KWT;118;Asia;Asia;Western Asia;Middle East & North Africa;;;;;;;;;;;;;;;;
LAO;LAO;LAO;LAO;NO;Lao People's Democratic Republic;Lao;NO;República Democrática Popular Lao;Lao;NO;République démocratique populaire lao;Lao;Laos;;the Lao People's Democratic Republic;la República Democrática Popular Lao;la République démocratique populaire lao;;;;Lao PDR;Laos;LAO;LAO;LA;LA;LAO;418;418;LA;LAO;LAO;LAO;120;Asia;Asia;South-Eastern Asia;East Asia & Pacific;;;;;;;;;;;;;;;;
LBN;LBN;LBN;LBN;SI;Lebanon;Lebanon;SI;Líbano;Líbano;SI;Liban;Liban;Líbano;;the Lebanese Republic;la República libanesa;la République libanaise;;;;Lebanon;Lebanon;LBN;LBN;LB;LB;LBN;422;422;LB;LBN;LBN;LBN;121;Asia;Asia;Western Asia;Middle East & North Africa;;;;;;;;;;;;;;;;
LBR;LBR;LBR;LBR;SI;Liberia;Liberia;SI;Liberia;Liberia;SI;Libéria;Libéria;Libéria;;the Republic of Liberia;la República de Liberia;la République du Libéria;;;;Liberia;Liberia;LBR;LBR;LR;LR;LBR;430;430;LR;LBR;LBR;LBR;123;Africa;Africa;Western Africa;Sub-Saharan Africa;;;;;;;;;;;;;;;;
LBY;LBY;LBY;LBY;SI;Libya;Libya;SI;Libia;Libia;SI;Libye;Libye;Líbia;;Libya;Libia;Libye;;;;Libya;Libya;LBY;LBY;LY;LY;LBY;434;434;LY;LBY;LBY;LBY;124;Africa;Africa;Northern Africa;Middle East & North Africa;;;;;;;;;;;;;;;;
LCA;LCA;LCA;LCA;SI;Saint Lucia;Saint Lucia;SI;Santa Lucía;Santa Lucía;SI;Sainte-Lucie;Sainte-Lucie;Santa Lúcia;;Saint Lucia;Santa Lucía;Sainte-Lucie;;;;Saint Lucia;Saint Lucia;LCA;LCA;LC;LC;LCA;662;662;LC;LCA;LCA;LCA;189;Americas;Americas;Caribbean;Latin America & Caribbean;;;;;;;;;;;;;;;;
LIE;LIE;LIE;LIE;SI;Liechtenstein;Liechtenstein;SI;Liechtenstein;Liechtenstein;SI;Liechtenstein;Liechtenstein;Liechtenstein;;the Principality of Liechtenstein;el Principado de Liechtenstein;la Principauté du Liechtenstein;;;;Liechtenstein;Liechtenstein;LIE;LIE;FL;LI;LIE;438;438;LI;LIE;LIE;LIE;125;Europe;Europe;Western Europe;Europe & Central Asia;;;;;;;;;;;;;;;;
LKA;LKA;LKA;LKA;SI;Sri Lanka;Sri Lanka;SI;Sri Lanka;Sri Lanka;SI;Sri Lanka;Sri Lanka;Sri Lanka;;the Democratic Socialist Republic of Sri Lanka;la República Socialista Democrática de Sri Lanka;la République socialiste démocratique de Sri Lanka;;;;Sri Lanka;Sri Lanka;LKA;LKA;LK;LK;LKA;144;144;LK;LKA;LKA;LKA;38;Asia;Asia;Southern Asia;South Asia;;;;;;;;;;;;;;;;
LSO;LSO;LSO;LSO;SI;Lesotho;Lesotho;SI;Lesotho;Lesotho;SI;Lesotho;Lesotho;Lesoto;;the Kingdom of Lesotho;el Reino de Lesotho;le Royaume du Lesotho;;;;Lesotho;Lesotho;LSO;LSO;LS;LS;LSO;426;426;LS;LSO;LSO;LSO;122;Africa;Africa;Southern Africa;Sub-Saharan Africa;;;;;;;;;;;;;;;;
LTU;LTU;LTU;LTU;SI;Lithuania;Lithuania;SI;Lituania;Lituania;SI;Lituanie;Lituanie;Lituânia;;the Republic of Lithuania;la República de Lituania;la République de Lituanie;;;;Lithuania;Lithuania;LTU;LTU;LT;LT;LTU;440;440;LT;LTU;LTU;LTU;126;Europe;Europe;Northern Europe;Europe & Central Asia;;;;;;;;;;;;;;;;
LUX;LUX;LUX;LUX;SI;Luxembourg;Luxembourg;SI;Luxemburgo;Luxemburgo;SI;Luxembourg;Luxembourg;Luxemburgo;;the Grand Duchy of Luxembourg;el Gran Ducado de Luxemburgo;le Grand-Duché de Luxembourg;;;;Luxembourg;Luxembourg;LUX;LUX;L;LU;LUX;442;442;LU;LUX;LUX;LUX;256;Europe;Europe;Western Europe;Europe & Central Asia;;;;;;;;;;;;;;;;
LVA;LVA;LVA;LVA;SI;Latvia;Latvia;SI;Letonia;Letonia;SI;Lettonie;Lettonie;Letônia;;the Republic of Latvia;la República de Letonia;la République de Lettonie;;;;Latvia;Latvia;LVA;LVA;LV;LV;LVA;428;428;LV;LVA;LVA;LVA;119;Europe;Europe;Northern Europe;Europe & Central Asia;;;;;;;;;;;;;;;;
MAC;;MAC;;NO;;Macao S.A.R;NO;;Macao;NO;;Macao;Macau;;Macao S.A.R;Macao;Macao;;;;Macao;Macao S.A.R;MAC;;MO;MO;MAC;446;446;MO;MAC;MAC;MAC;;Asia;Asia;Eastern Asia;East Asia & Pacific;;;;;;;;;;;;;;;;
MAF;MAF;MAF;;NO;;Saint-Martin;NO;;Saint-Martin;NO;;Saint-Martin;São Martinho;;Saint-Martin (French Part);Saint-Martin (Parte francesa);Saint-Martin (Partie française);;;;Saint-Martin;Saint Martin;MAF;;MF;MF;MAF;663;663;MF;MAF;MAF;MAF;;Americas;Americas;Caribbean;Latin America & Caribbean;;;;;;;;;;;;;;;;
MAR;MAR;MAR;MAR;SI;Morocco;Morocco;SI;Marruecos;Marruecos;SI;Maroc;Maroc;Marrocos;;the Kingdom of Morocco;el Reino de Marruecos;le Royaume du Maroc;;;;Morocco;Morocco;MAR;MAR;MA;MA;MAR;504;504;MA;MAR;MAR;MAR;143;Africa;Africa;Northern Africa;Middle East & North Africa;;;;;;;;;;;;;;;;
MCO;MCO;MCO;MCO;SI;Monaco;Monaco;SI;Mónaco;Mónaco;SI;Monaco;Monaco;Mônaco;;the Principality of Monaco;el Principado de Mónaco;la Principauté de Monaco;;;;Monaco;Monaco;MCO;MCO;MC;MC;MCO;492;492;MC;MCO;MCO;MCO;140;Europe;Europe;Western Europe;Europe & Central Asia;;;;;;;;;;;;;;;;
MDA;MDA;MDA;MDA;NO;Republic of Moldova;Moldova;NO;República de Moldova;Moldavia;NO;République de Moldova;Moldova;Moldávia;;the Republic of Moldova;la República de Moldova;la République de Moldova;;;;Moldova;Moldova;MDA;MDA;MD;MD;MDA;498;498;MD;MDA;MDA;MDA;146;Europe;Europe;Eastern Europe;Europe & Central Asia;;;;;;;;;;;;;;;;
MDG;MDG;MDG;MDG;SI;Madagascar;Madagascar;SI;Madagascar;Madagascar;SI;Madagascar;Madagascar;Madagáscar;;the Republic of Madagascar;la República de Madagascar;la République de Madagascar;;;;Madagascar;Madagascar;MDG;MDG;MG;MG;MDG;450;450;MG;MDG;MDG;MDG;129;Africa;Africa;Eastern Africa;Sub-Saharan Africa;;;;;;;;;;;;;;;;
MDV;MDV;MDV;MDV;SI;Maldives;Maldives;SI;Maldivas;Maldivas;SI;Maldives;Maldives;Maldivas;;the Republic of Maldives;la República de Maldivas;la République des Maldives;;;;Maldives;Maldives;MDV;MDV;MV;MV;MDV;462;462;MV;MDV;MDV;B13;132;Asia;Asia;Southern Asia;South Asia;;;;;;;;;;;;;;;;
MEX;MEX;MEX;MEX;SI;Mexico;Mexico;SI;México;México;SI;Mexique;Mexique;México;;the United Mexican States;los Estados Unidos Mexicanos;les États-Unis du Mexique;;;;Mexico;Mexico;MEX;MEX;MX;MX;MEX;484;484;MX;MEX;MEX;MEX;138;Americas;Americas;Central America;Latin America & Caribbean;;;;;;;;;;;;;;;;
MHL;MHL;MHL;MHL;SI;Marshall Islands;Marshall Islands;SI;Islas Marshall;Islas Marshall;SI;Îles Marshall;Îles Marshall;Ilhas Marshall;;the Republic of the Marshall Islands;la República de las Islas Marshall;la République des Îles Marshall;;;;Marshall Islands;Marshall Islands;MHL;MHL;MH;MH;MHL;584;584;MH;MHL;MHL;MHL;127;Oceania;Oceania;Micronesia;East Asia & Pacific;;;;;;;;;;;;;;;;
MKD;MKD;MKD;MKD;NO;The former Yugoslav Republic of Macedonia;Macedonia;NO;la ex República Yugoslava de Macedonia;Macedonia;NO;l'ex-République yougoslave de Macédoine;Macédoine;Macedônia;;The former Yugoslav Republic of Macedonia;la ex República Yugoslava de Macedonia;l'ex-République yougoslave de Macédoine;;;;Macedonia;Macedonia;MKD;MKD;MK;MK;MKD;807;807;MK;MKD;MKD;MKD;154;Europe;Europe;Southern Europe;Europe & Central Asia;;;;;;;;;;;;;;;;
MLI;MLI;MLI;MLI;SI;Mali;Mali;SI;Malí;Malí;SI;Mali;Mali;Mali;;the Republic of Mali;la República de Malí;la République du Mali;;;;Mali;Mali;MLI;MLI;ML;ML;MLI;466;466;ML;MLI;MLI;MLI;133;Africa;Africa;Western Africa;Sub-Saharan Africa;;;;;;;;;;;;;;;;
MLT;MLT;MLT;MLT;SI;Malta;Malta;SI;Malta;Malta;SI;Malte;Malte;Malta;;the Republic of Malta;la República de Malta;la République de Malte;;;;Malta;Malta;MLT;MLT;M;MT;MLT;470;470;MT;MLT;MLT;MLT;134;Europe;Europe;Southern Europe;Middle East & North Africa;;;;;;;;;;;;;;;;
MMR;MMR;MMR;MMR;SI;Myanmar;Myanmar;SI;Myanmar;Myanmar;SI;Myanmar;Myanmar;Myanmar;;the Republic of the Union of Myanmar;la República de la Unión de Myanmar;République de l'Union du Myanmar;;;;Myanmar;Myanmar;MMR;MMR;MM;MM;MMR;104;104;MM;MMR;MMR;MMR;28;Asia;Asia;South-Eastern Asia;East Asia & Pacific;;;;;;;;;;;;;;;;
MNE;MNE;MNE;MNE;SI;Montenegro;Montenegro;SI;Montenegro;Montenegro;SI;Monténégro;Monténégro;Montenegro;;Montenegro;Montenegro;le Monténégro;;;;Montenegro;Montenegro;MNE;MNE;ME;ME;MNE;499;499;ME;MNE;MNE;MNE;273;Europe;Europe;Southern Europe;Europe & Central Asia;;;;;;;;;;;;;;;;
MNG;MNG;MNG;MNG;SI;Mongolia;Mongolia;SI;Mongolia;Mongolia;SI;Mongolie;Mongolie;Mongólia;;Mongolia;Mongolia;la Mongolie;;;;Mongolia;Mongolia;MNG;MNG;MN;MN;MNG;496;496;MN;MNG;MNG;MNG;141;Asia;Asia;Eastern Asia;East Asia & Pacific;;;;;;;;;;;;;;;;
MNP;MNP;MNP;;NO;;Northern Mariana Islands;NO;;Islas Marianas del Norte;NO;;Îles Mariannes du Nord;Marianas Setentrionais;;Northern Mariana Islands;Islas Marianas del Norte;Îles Mariannes du Nord;;;;Northern Mariana Islands;Northern Mariana Islands;MNP;;MP;MP;MNP;580;580;MP;MNP;MNP;MNP;163;Oceania;Oceania;Micronesia;East Asia & Pacific;;;;;;;;;;;;;;;;
MOZ;MOZ;MOZ;MOZ;SI;Mozambique;Mozambique;SI;Mozambique;Mozambique;SI;Mozambique;Mozambique;Moçambique;;the Republic of Mozambique;la República de Mozambique;la République du Mozambique;;;;Mozambique;Mozambique;MOZ;MOZ;MZ;MZ;MOZ;508;508;MZ;MOZ;MOZ;MOZ;144;Africa;Africa;Eastern Africa;Sub-Saharan Africa;;;;;;;;;;;;;;;;
MRT;MRT;MRT;MRT;SI;Mauritania;Mauritania;SI;Mauritania;Mauritania;SI;Mauritanie;Mauritanie;Mauritânia;;the Islamic Republic of Mauritania;la República Islámica de Mauritania;la République islamique de Mauritanie;;;;Mauritania;Mauritania;MRT;MRT;MR;MR;MRT;478;478;MR;MRT;MRT;MRT;136;Africa;Africa;Western Africa;Sub-Saharan Africa;;;;;;;;;;;;;;;;
MSR;MSR;MSR;MSR;SI;Montserrat;Montserrat;SI;Montserrat;Montserrat;SI;Montserrat;Montserrat;Montserrat;;Montserrat;Montserrat;Montserrat;;;;Montserrat;Montserrat;MSR;MSR;MS;MS;MSR;500;500;-99;-99;MSR;MSR;142;Americas;Americas;Caribbean;Latin America & Caribbean;;;;;;;;;;;;;;;;
MTQ;;MTQ;;NO;;Martinique;NO;;Martinica;NO;;Martinique;Martinica;;Martinique;Martinica;la Martinique;;;;;;;MTQ;;;;;;;;;;135;Americas;;;;;;;;;;;;;;;;;;;
MUS;MUS;MUS;MUS;SI;Mauritius;Mauritius;SI;Mauricio;Mauricio;SI;Maurice;Maurice;Maurícia;;Mauritius;la República de Mauricio;la République de Maurice;;;;Mauritius;Mauritius;MUS;MUS;MU;MU;MUS;480;480;MU;MUS;MUS;MUS;137;Africa;Africa;Eastern Africa;Sub-Saharan Africa;;;;;;;;;;;;;;;;
MWI;MWI;MWI;MWI;SI;Malawi;Malawi;SI;Malawi;Malawi;SI;Malawi;Malawi;Malawi;;the Republic of Malawi;la República de Malawi;la République du Malawi;;;;Malawi;Malawi;MWI;MWI;MW;MW;MWI;454;454;MW;MWI;MWI;MWI;130;Africa;Africa;Eastern Africa;Sub-Saharan Africa;;;;;;;;;;;;;;;;
MYS;MYS;MYS;MYS;SI;Malaysia;Malaysia;SI;Malasia;Malasia;SI;Malaisie;Malaisie;Malásia;;Malaysia;Malasia;la Malaisie;;;;Malaysia;Malaysia;MYS;MYS;MY;MY;MYS;458;458;MY;MYS;MYS;MYS;131;Asia;Asia;South-Eastern Asia;East Asia & Pacific;;;;;;;;;;;;;;;;
MYT;;MYT;;NO;;Mayotte;NO;;Mayotte;NO;;Mayotte;Mayotte;;Mayotte;Mayotte;Mayotte;;;;;;;;;;;;;;;;;;;;;;;;;;;;;;;;;;;;;
NAM;NAM;NAM;NAM;SI;Namibia;Namibia;SI;Namibia;Namibia;SI;Namibie;Namibie;Namíbia;;the Republic of Namibia;la República de Namibia;la République de Namibie;;;;Namibia;Namibia;NAM;NAM;NA;NA;NAM;516;516;NA;NAM;NAM;NAM;147;Africa;Africa;Southern Africa;Sub-Saharan Africa;;;;;;;;;;;;;;;;
NCL;NCL;NCL;NCL;SI;New Caledonia;New Caledonia;SI;Nueva Caledonia;Nueva Caledonia;SI;Nouvelle-Calédonie;Nouvelle-Calédonie;Nova Caledônia;;New Caledonia;Nueva Caledonia;la Nouvelle-Calédonie;;;;New Caledonia;New Caledonia;NCL;NCL;NC;NC;NCL;540;540;NC;NCL;NCL;NCL;153;Oceania;Oceania;Melanesia;East Asia & Pacific;;;;;;;;;;;;;;;;
NER;NER;NER;NER;SI;Niger;Niger;SI;Níger;Níger;SI;Niger;Niger;Níger;;the Republic of the Niger;la República del Níger;la République du Niger;;;;Niger;Niger;NER;NER;NE;NE;NER;562;562;NE;NER;NER;NER;158;Africa;Africa;Western Africa;Sub-Saharan Africa;;;;;;;;;;;;;;;;
NFK;NFK;NFK;;NO;;Norfolk Island;NO;;Isla Norfolk;NO;;Île Norfolk;Ilha Norfolk;;Norfolk Island;Isla Norfolk;Île Norfolk;;;;Norfolk Island;Norfolk Island;NFK;;NF;NF;NFK;574;574;-99;-99;NFK;NFK;161;Oceania;Oceania;Australia and New Zealand;East Asia & Pacific;;;;;;;;;;;;;;;;
NGA;NGA;NGA;NGA;SI;Nigeria;Nigeria;SI;Nigeria;Nigeria;SI;Nigéria;Nigéria;Nigéria;;the Federal Republic of Nigeria;la República Federal de Nigeria;la République fédérale du Nigéria;;;;Nigeria;Nigeria;NGA;NGA;NG;NG;NGA;566;566;NG;NGA;NGA;NGA;159;Africa;Africa;Western Africa;Sub-Saharan Africa;;;;;;;;;;;;;;;;
NIC;NIC;NIC;NIC;SI;Nicaragua;Nicaragua;SI;Nicaragua;Nicaragua;SI;Nicaragua;Nicaragua;Nicarágua;;the Republic of Nicaragua;la República de Nicaragua;la République du Nicaragua;;;;Nicaragua;Nicaragua;NIC;NIC;NI;NI;NIC;558;558;NI;NIC;NIC;NIC;157;Americas;Americas;Central America;Latin America & Caribbean;;;;;;;;;;;;;;;;
NIU;NIU;NIU;NIU;SI;Niue;Niue;SI;Niue;Niue;SI;Nioué;Nioué;Niue;;the Republic of Niue;la República de Niue;la République de Nioué;;;;Niue;Niue;NIU;NIU;NU;NU;NIU;570;570;-99;-99;NIU;NIU;160;Oceania;Oceania;Polynesia;East Asia & Pacific;;;;;;;;;;;;;;;;
NLD;NLD;NLD;NLD;SI;Netherlands;Netherlands;SI;Países Bajos;Países Bajos;SI;Pays-Bas;Pays-Bas;Países Baixos;;the Kingdom of the Netherlands;el Reino de los Países Bajos;le Royaume des Pays-Bas;;;;Netherlands;Netherlands;NLD;NLD;NL;NL;NLD;528;528;NL;NLD;NLD;NLD;150;Europe;Europe;Western Europe;Europe & Central Asia;;;;;;;;;;;;;;;;
NOR;NOR;NOR;NOR;SI;Norway;Norway;SI;Noruega;Noruega;SI;Norvège;Norvège;Noruega;;the Kingdom of Norway;el Reino de Noruega;le Royaume de Norvège;;;;Norway;Norway;NOR;NOR;N;NO;NOR;578;578;NO;NOR;NOR;NOR;162;Europe;Europe;Northern Europe;Europe & Central Asia;;;;;;;;;;;;;;;;
NPL;NPL;NPL;NPL;SI;Nepal;Nepal;SI;Nepal;Nepal;SI;Népal;Népal;Nepal;;Federal Democratic Republic of Nepal;República Federal Democrática de Nepal;République démocratique fédérale du Nepal;;;;Nepal;Nepal;NPL;NPL;NP;NP;NPL;524;524;NP;NPL;NPL;NPL;149;Asia;Asia;Southern Asia;South Asia;;;;;;;;;;;;;;;;
NRU;NRU;NRU;NRU;SI;Nauru;Nauru;SI;Nauru;Nauru;SI;Nauru;Nauru;Nauru;;the Republic of Nauru;la República de Nauru;la République de Nauru;;;;Nauru;Nauru;NRU;NRU;NR;NR;NRU;520;520;-99;-99;NRU;NRU;148;Oceania;Oceania;Micronesia;East Asia & Pacific;;;;;;;;;;;;;;;;
NZL;NZL;NZL;NZL;SI;New Zealand;New Zealand;SI;Nueva Zelandia;Nueva Zelandia;SI;Nouvelle-Zélande;Nouvelle-Zélande;Nova Zelândia;;New Zealand;Nueva Zelandia;la Nouvelle-Zélande;;;;New Zealand;New Zealand;NZL;NZL;NZ;NZ;NZL;554;554;NZ;NZL;NZL;NZL;156;Oceania;Oceania;Australia and New Zealand;East Asia & Pacific;;;;;;;;;;;;;;;;
OMN;OMN;OMN;OMN;SI;Oman;Oman;SI;Omán;Omán;SI;Oman;Oman;Oman;;the Sultanate of Oman;la Sultanía de Omán;le Sultanat d'Oman;;;;Oman;Oman;OMN;OMN;OM;OM;OMN;512;512;OM;OMN;OMN;OMN;221;Asia;Asia;Western Asia;Middle East & North Africa;;;;;;;;;;;;;;;;
PAK;PAK;PAK;PAK;SI;Pakistan;Pakistan;SI;Pakistán;Pakistán;SI;Pakistan;Pakistan;Paquistão;;the Islamic Republic of Pakistan;la República Islámica del Pakistán;la République islamique du Pakistan;;;;Pakistan;Pakistan;PAK;PAK;PK;PK;PAK;586;586;PK;PAK;PAK;PAK;165;Asia;Asia;Southern Asia;South Asia;;;;;;;;;;;;;;;;
PAN;PAN;PAN;PAN;SI;Panama;Panama;SI;Panamá;Panamá;SI;Panama;Panama;Panamá;;the Republic of Panama;la República de Panamá;la République du Panama;;;;Panama;Panama;PAN;PAN;PA;PA;PAN;591;591;PA;PAN;PAN;PAN;166;Americas;Americas;Central America;Latin America & Caribbean;;;;;;;;;;;;;;;;
PCN;PCN;PCN;;NO;;Pitcairn Islands;NO;;Islas Pitcairn;NO;;Îles Pitcairn;Pitcairn;;Pitcairn Islands;Islas Pitcairn;Îles Pitcairn;;;;Pitcairn Islands;Pitcairn Islands;PCN;;PN;PN;PCN;612;612;-99;-99;PCN;PCN;172;Oceania;Oceania;Polynesia;East Asia & Pacific;;;;;;;;;;;;;;;;
PER;PER;PER;PER;SI;Peru;Peru;SI;Perú;Perú;SI;Pérou;Pérou;Peru;;the Republic of Peru;la República del Perú;la République du Pérou;;;;Peru;Peru;PER;PER;PE;PE;PER;604;604;PE;PER;PER;PER;170;Americas;Americas;South America;Latin America & Caribbean;;;;;;;;;;;;;;;;
PHL;PHL;PHL;PHL;SI;Philippines;Philippines;SI;Filipinas;Filipinas;SI;Philippines;Philippines;Filipinas;;the Republic of the Philippines;la República de Filipinas;la République des Philippines;;;;Philippines;Philippines;PHL;PHL;PH;PH;PHL;608;608;PH;PHL;PHL;PHL;171;Asia;Asia;South-Eastern Asia;East Asia & Pacific;;;;;;;;;;;;;;;;
PLW;PLW;PLW;PLW;SI;Palau;Palau;SI;Palau;Palau;SI;Palaos;Palaos;Palau;;the Republic of Palau;la República de Palau;la République des Palaos;;;;Palau;Palau;PLW;PLW;PW;PW;PLW;585;585;PW;PLW;PLW;PLW;180;Oceania;Oceania;Micronesia;East Asia & Pacific;;;;;;;;;;;;;;;;
PNG;PNG;PNG;PNG;SI;Papua New Guinea;Papua New Guinea;SI;Papua Nueva Guinea;Papua Nueva Guinea;SI;Papouasie-Nouvelle-Guinée;Papouasie-Nouvelle-Guinée;Papua-Nova Guiné;;Papua New Guinea;Papua Nueva Guinea;la Papouasie-Nouvelle-Guinée;;;;Papua New Guinea;Papua New Guinea;PNG;PNG;PG;PG;PNG;598;598;PG;PNG;PNG;PNG;168;Oceania;Oceania;Melanesia;East Asia & Pacific;;;;;;;;;;;;;;;;
POL;POL;POL;POL;SI;Poland;Poland;SI;Polonia;Polonia;SI;Pologne;Pologne;Polônia;;the Republic of Poland;la República de Polonia;la République de Pologne;;;;Poland;Poland;POL;POL;PL;PL;POL;616;616;PL;POL;POL;POL;173;Europe;Europe;Eastern Europe;Europe & Central Asia;;;;;;;;;;;;;;;;
PRI;PRI;PRI;PRI;SI;Puerto Rico;Puerto Rico;SI;Puerto Rico;Puerto Rico;SI;Porto Rico;Porto Rico;Porto Rico;;the Commonwealth of Puerto Rico;el Estado Libre Asociado de Puerto Rico;l'État libre associé de Porto Rico;;;;Puerto Rico;Puerto Rico;PRI;PRI;PR;PR;PRI;630;630;PR;PRI;PRI;PRI;177;Americas;Americas;Caribbean;Latin America & Caribbean;;;;;;;;;;;;;;;;
PRK;PRK;PRK;PRK;SI;Democratic People's Republic of Korea;Democratic People's Republic of Korea;SI;República Popular Democrática de Corea;República Popular Democrática de Corea;SI;République populaire démocratique de Corée;République populaire démocratique de Corée;República Popular Democrática da Coreia;;the Democratic People's Republic of Korea;la República Popular Democrática de Corea;la République populaire démocratique de Corée;;;;Dem. Rep. Korea;North Korea;PRK;PRK;KP;KP;PRK;408;408;KP;PRK;PRK;PRK;116;Asia;Asia;Eastern Asia;East Asia & Pacific;;;;;;;;;;;;;;;;
PRT;PRT;PRT;PRT;SI;Portugal;Portugal;SI;Portugal;Portugal;SI;Portugal;Portugal;Portugal;;the Portuguese Republic;la República Portuguesa;la République portugaise;;;;Portugal;Portugal;PRT;PRT;P;PT;PRT;620;620;PT;PRT;PRT;PRT;174;Europe;Europe;Southern Europe;Europe & Central Asia;;;;;;;;;;;;;;;;
PRY;PRY;PRY;PRY;SI;Paraguay;Paraguay;SI;Paraguay;Paraguay;SI;Paraguay;Paraguay;Paraguai;;the Republic of Paraguay;la República del Paraguay;la République du Paraguay;;;;Paraguay;Paraguay;PRY;PRY;PY;PY;PRY;600;600;PY;PRY;PRY;PRY;169;Americas;Americas;South America;Latin America & Caribbean;;;;;;;;;;;;;;;;
PSE;PSX;PSE;;NO;;Palestine;NO;;Palestina;NO;;Palestine;Palestina;;Palestine;Palestina;Palestine;;;;Palestine;Palestine;PSE;;PAL;PS;PSE;275;275;GZ;WBG;PSE;PSX;;Asia;Asia;Western Asia;Middle East & North Africa;;;;;;;;;;;;;;;;
PYF;PYF;PYF;PYF;SI;French Polynesia;French Polynesia;SI;Polinesia Francesa;Polinesia Francesa;SI;Polynésie française;Polynésie française;Polinésia Francesa;;French Polynesia;Polinesia Francesa;la Polynésie française;;;;French Polynesia;French Polynesia;PYF;PYF;PF;PF;PYF;258;258;PF;PYF;PYF;PYF;70;Oceania;Oceania;Polynesia;East Asia & Pacific;;;;;;;;;;;;;;;;
QAT;QAT;QAT;QAT;SI;Qatar;Qatar;SI;Qatar;Qatar;SI;Qatar;Qatar;Qatar;;the State of Qatar;el Estado de Qatar;l'État du Qatar;;;;Qatar;Qatar;QAT;QAT;QA;QA;QAT;634;634;QA;QAT;QAT;QAT;179;Asia;Asia;Western Asia;Middle East & North Africa;;;;;;;;;;;;;;;;
REU;;REU;;NO;;Réunion;NO;;Reunión;NO;;Réunion;Reunião;;Réunion;Reunión;la Réunion;;;;;;;REU;;;;;;;;;;182;Africa;;;;;;;;;;;;;;;;;;;
ROU;ROU;ROU;ROU;SI;Romania;Romania;SI;Rumania;Rumania;SI;Roumanie;Roumanie;Romênia;;Romania;Rumanía;la Roumanie;;;;Romania;Romania;ROU;ROU;RO;RO;ROU;642;642;RO;ROM;ROU;ROU;183;Europe;Europe;Eastern Europe;Europe & Central Asia;;;;;;;;;;;;;;;;
RUS;RUS;RUS;RUS;NO;Russian Federation;Russia;NO;Federación de Rusia;Rusia;SI;Fédération de Russie;Fédération de Russie;Rússia;;the Russian Federation;la Federación de Rusia;la Fédération de Russie;;;;Russian Federation;Russia;RUS;RUS;RUS;RU;RUS;643;643;RU;RUS;RUS;RUS;185;Europe;Europe;Eastern Europe;Europe & Central Asia;;;;;;;;;;;;;;;;
RWA;RWA;RWA;RWA;SI;Rwanda;Rwanda;SI;Rwanda;Rwanda;SI;Rwanda;Rwanda;Ruanda;;the Republic of Rwanda;la República de Rwanda;la République du Rwanda;;;;Rwanda;Rwanda;RWA;RWA;RW;RW;RWA;646;646;RW;RWA;RWA;RWA;184;Africa;Africa;Eastern Africa;Sub-Saharan Africa;;;;;;;;;;;;;;;;
SAU;SAU;SAU;SAU;SI;Saudi Arabia;Saudi Arabia;SI;Arabia Saudita;Arabia Saudita;SI;Arabie saoudite;Arabie saoudite;Arábia Saudita;;the Kingdom of Saudi Arabia;el Reino de Arabia Saudita;le Royaume d'Arabie saoudite;;;;Saudi Arabia;Saudi Arabia;SAU;SAU;SA;SA;SAU;682;682;SA;SAU;SAU;SAU;194;Asia;Asia;Western Asia;Middle East & North Africa;;;;;;;;;;;;;;;;
SDN;SDN;SDN;SDN;SI;Sudan;Sudan;SI;Sudán;Sudán;SI;Soudan;Soudan;Sudão;;the Republic of the Sudan;la República del Sudán;la République du Soudan;;;;Sudan;Sudan;SDN;SDN;SD;SD;SDN;729;729;SD;SDN;SDN;SDN;206;Africa;Africa;Northern Africa;Sub-Saharan Africa;;;;;;;;;;;;;;;;
SEN;SEN;SEN;SEN;SI;Senegal;Senegal;SI;Senegal;Senegal;SI;Sénégal;Sénégal;Senegal;;the Republic of Senegal;la República del Senegal;la République du Sénégal;;;;Senegal;Senegal;SEN;SEN;SN;SN;SEN;686;686;SN;SEN;SEN;SEN;195;Africa;Africa;Western Africa;Sub-Saharan Africa;;;;;;;;;;;;;;;;
SGP;SGP;SGP;SGP;SI;Singapore;Singapore;SI;Singapur;Singapur;SI;Singapour;Singapour;Singapura;;the Republic of Singapore;la República de Singapur;la République de Singapour;;;;Singapore;Singapore;SGP;SGP;SG;SG;SGP;702;702;SG;SGP;SGP;SGP;200;Asia;Asia;South-Eastern Asia;East Asia & Pacific;;;;;;;;;;;;;;;;
SGS;SGS;SGS;;NO;;South Georgia and South Sandwich Islands;NO;;Islas Georgias del Sur y Sandwich del Sur;NO;;Géorgie du Sud-et-les Îles Sandwich du Sud;Ilhas Geórgia do Sul e Sandwich do Sul;;South Georgia and South Sandwich Islands;Islas Georgias del Sur y Sandwich del Sur;Géorgie du Sud-et-les Îles Sandwich du Sud;;;;South Georgia and South Sandwich Islands;South Georgia and South Sandwich Islands;SGS;;GS;GS;SGS;239;-099;-99;-99;SGS;SGS;;Europe;Seven seas (open ocean);Seven seas (open ocean);Antarctica;;;;;;;;;;;;;;;;
SHN;SHN;SHN;SHN;SI;Saint Helena, Ascension and Tristan da Cunha;Saint Helena, Ascension and Tristan da Cunha;SI;Santa Elena, Ascension y Tristan da Cunha;Santa Elena, Ascension y Tristan da Cunha;SI;Sainte-Hélène, Ascension et Tristan de Cunha;Sainte-Hélène, Ascension et Tristan de Cunha;Santa Helena;;Saint Helena, Ascension and Tristan da Cunha;Santa Elena, Ascension y Tristan da Cunha;Sainte-Hélène, Ascension et Tristan de Cunha;;;;Saint Helena;Saint Helena;SHN;SHN;SH;SH;SHN;654;654;-99;-99;SHN;SHN;187;Africa;Africa;Western Africa;Sub-Saharan Africa;;;;;;;;;;;;;;;;
SJM;;SJM;;NO;;Svalbard and Jan Mayen;NO;;Svalbard y Jan Mayen;NO;;Svalbard et Jan Mayen;Svalbard e Jan Mayen;;Svalbard and Jan Mayen;Svalbard y Jan Mayen;Svalbard et Jan Mayen;;;;;;;;;;;;;;;;;;;;;;;;;;;;;;;;;;;;;
SLB;SLB;SLB;SLB;SI;Solomon Islands;Solomon Islands;SI;Islas Salomón;Islas Salomón;SI;Îles Salomon;Îles Salomon;Ilhas Salomão;;Solomon Islands;las Islas Salomón;les Îles Salomon;;;;Solomon Islands;Solomon Islands;SLB;SLB;SB;SB;SLB;090;090;SB;SLB;SLB;SLB;25;Oceania;Oceania;Melanesia;East Asia & Pacific;;;;;;;;;;;;;;;;
SLE;SLE;SLE;SLE;SI;Sierra Leone;Sierra Leone;SI;Sierra Leona;Sierra Leona;SI;Sierra Leone;Sierra Leone;Serra Leoa;;the Republic of Sierra Leone;la República de Sierra Leona;la République de Sierra Leone;;;;Sierra Leone;Sierra Leone;SLE;SLE;SL;SL;SLE;694;694;SL;SLE;SLE;SLE;197;Africa;Africa;Western Africa;Sub-Saharan Africa;;;;;;;;;;;;;;;;
SLV;SLV;SLV;SLV;SI;El Salvador;El Salvador;SI;El Salvador;El Salvador;SI;El Salvador;El Salvador;El Salvador;;the Republic of El Salvador;la República de El Salvador;la République d'El Salvador;;;;El Salvador;El Salvador;SLV;SLV;SV;SV;SLV;222;222;SV;SLV;SLV;SLV;60;Americas;Americas;Central America;Latin America & Caribbean;;;;;;;;;;;;;;;;
SMR;SMR;SMR;SMR;SI;San Marino;San Marino;SI;San Marino;San Marino;SI;Saint-Marin;Saint-Marin;San Marino;;the Republic of San Marino;la República de San Marino;la République de Saint-Marin;;;;San Marino;San Marino;SMR;SMR;RSM;SM;SMR;674;674;SM;SMR;SMR;SMR;192;Europe;Europe;Southern Europe;Europe & Central Asia;;;;;;;;;;;;;;;;
SOL;;;;NO;;Somaliland;NO;;Somalilandia;NO;;Somaliland;Somalilândia;;Somaliland;Somalilandia;Somaliland;;;;Somaliland;Somaliland;SOL;;SL;-99;-99;-99;-099;-99;-99;SOM;SOM;;Africa;Africa;Eastern Africa;Sub-Saharan Africa;;;;;;;;;;;;;;;;
SOM;SOM;SOM;SOM;SI;Somalia;Somalia;SI;Somalia;Somalia;SI;Somalie;Somalie;Somália;;the Somali Republic;la República Somalí;la République somalienne;;;;Somalia;Somalia;SOM;SOM;SO;SO;SOM;706;706;SO;SOM;SOM;SOM;201;Africa;Africa;Eastern Africa;Sub-Saharan Africa;;;;;;;;;;;;;;;;
SPM;SPM;SPM;SPM;SI;Saint Pierre and Miquelon;Saint Pierre and Miquelon;SI;Saint-Pierre y Miquelon;Saint-Pierre y Miquelon;SI;Saint-Pierre-et-Miquelon;Saint-Pierre-et-Miquelon;Saint Pierre et Miquelon;;Saint Pierre and Miquelon;Saint Pierre and Miquelon;Saint-Pierre-et-Miquelon;;;;Saint Pierre and Miquelon;Saint Pierre and Miquelon;SPM;SPM;PM;PM;SPM;666;666;-99;-99;SPM;SPM;190;Americas;Americas;Northern America;North America;;;;;;;;;;;;;;;;
SRB;SRB;SRB;SRB;SI;Serbia;Serbia;SI;Serbia;Serbia;SI;Serbie;Serbie;Sérvia;;the Republic of Serbia;la República de Serbia;la République de Serbie;;;;Serbia;Republic of Serbia;SRB;SRB;RS;RS;SRB;688;688;YF;SRB;SRB;SRB;272;Europe;Europe;Southern Europe;Europe & Central Asia;;;;;;;;;;;;;;;;
SSD;SSD;SSD;;NO;;South Sudan;NO;;Sudán del Sur;NO;;Soudan du Sud;Sudão do Sul;;Republic of South Sudan;República de Sudán del Sur;République du Soudan du Sud;;;;South Sudan;South Sudan;SSD;SSD;SS;SS;SSD;728;728;SS;SSD;SSD;SDS;;Africa;Africa;Eastern Africa;Sub-Saharan Africa;;;;;;;;;;;;;;;;
STP;STP;STP;STP;SI;Sao Tome and Principe;Sao Tome and Principe;SI;Santo Tomé y Príncipe;Santo Tomé y Príncipe;SI;Sao Tomé-et-Principe;Sao Tomé-et-Principe;São Tomé e Príncipe;;the Democratic Republic of Sao Tome and Principe;la República Democrática de Santo Tomé y Príncipe;la République démocratique de Sao Tomé-et-Principe;;;;SÒo TomÚ and Principe;Sao Tome and Principe;STP;STP;ST;ST;STP;678;678;ST;STP;STP;STP;193;Africa;Africa;Middle Africa;Sub-Saharan Africa;;;;;;;;;;;;;;;;
SUR;SUR;SUR;SUR;SI;Suriname;Suriname;SI;Suriname;Suriname;SI;Suriname;Suriname;Suriname;;the Republic of Suriname;la República de Suriname;la République du Suriname;;;;Suriname;Suriname;SUR;SUR;SR;SR;SUR;740;740;SR;SUR;SUR;SUR;207;Americas;Americas;South America;Latin America & Caribbean;;;;;;;;;;;;;;;;
SVK;SVK;SVK;SVK;SI;Slovakia;Slovakia;SI;Eslovaquia;Eslovaquia;SI;Slovaquie;Slovaquie;Eslováquia;;the Slovak Republic;la República Eslovaca;la République slovaque;;;;Slovakia;Slovakia;SVK;SVK;SK;SK;SVK;703;703;SK;SVK;SVK;SVK;199;Europe;Europe;Eastern Europe;Europe & Central Asia;;;;;;;;;;;;;;;;
SVN;SVN;SVN;SVN;SI;Slovenia;Slovenia;SI;Eslovenia;Eslovenia;SI;Slovénie;Slovénie;Eslovênia;;the Republic of Slovenia;la República de Eslovenia;la République de Slovénie;;;;Slovenia;Slovenia;SVN;SVN;SLO;SI;SVN;705;705;SI;SVN;SVN;SVN;198;Europe;Europe;Southern Europe;Europe & Central Asia;;;;;;;;;;;;;;;;
SWE;SWE;SWE;SWE;SI;Sweden;Sweden;SI;Suecia;Suecia;SI;Suède;Suède;Suécia;;the Kingdom of Sweden;el Reino de Suecia;le Royaume de Suède;;;;Sweden;Sweden;SWE;SWE;S;SE;SWE;752;752;SE;SWE;SWE;SWE;210;Europe;Europe;Northern Europe;Europe & Central Asia;;;;;;;;;;;;;;;;
SWZ;SWZ;SWZ;SWZ;SI;Swaziland;Swaziland;SI;Swazilandia;Swazilandia;SI;Swaziland;Swaziland;Suazilândia;;the Kingdom of Swaziland;el Reino de Swazilandia;le Royaume du Swaziland;;;;Swaziland;Swaziland;SWZ;SWZ;SW;SZ;SWZ;748;748;SZ;SWZ;SWZ;SWZ;209;Africa;Africa;Southern Africa;Sub-Saharan Africa;;;;;;;;;;;;;;;;
SXM;SXM;SXM;SXM;NO;Sint Maarten (Dutch Part);Sint Maarten;NO;Sint Maarten (Parte de los Países Bajos);Sint Maarten;NO;Sint Maarten (Partie Néerlandaise);Sint Maarten;São Martinho;;Sint Maarten (Dutch Part);Sint Maarten (Parte de los Países Bajos);Sint Maarten (Partie Néerlandaise);;;;Sint Maarten;Sint Maarten;SXM;---;SX;SX;SXM;534;534;SX;SXM;SXM;SXM;;Americas;Americas;Caribbean;Latin America & Caribbean;;;;;;;;;;;;;;;;
SYC;SYC;SYC;SYC;SI;Seychelles;Seychelles;SI;Seychelles;Seychelles;SI;Seychelles;Seychelles;Seychelles;;the Republic of Seychelles;la República de Seychelles;la République des Seychelles;;;;Seychelles;Seychelles;SYC;SYC;SC;SC;SYC;690;690;SC;SYC;SYC;SYC;196;Africa;Africa;Eastern Africa;Sub-Saharan Africa;;;;;;;;;;;;;;;;
SYR;SYR;SYR;SYR;SI;Syrian Arab Republic;Syrian Arab Republic;NO;República Árabe Siria;Siria;SI;République arabe syrienne;République arabe syrienne;Síria;;the Syrian Arab Republic;la República Árabe Siria;la République arabe syrienne;;;;Syria;Syria;SYR;SYR;SYR;SY;SYR;760;760;SY;SYR;SYR;SYR;212;Asia;Asia;Western Asia;Middle East & North Africa;;;;;;;;;;;;;;;;
TCA;TCA;TCA;TCA;SI;Turks and Caicos Islands;Turks and Caicos Islands;SI;Islas Turcas y Caicos;Islas Turcas y Caicos;SI;Îles Turques et Caïques;Îles Turques et Caïques;Turks e Caicos;;Turks and Caicos Islands;Islas Turcas y Caicos;les Îles Turques et Caïques;;;;Turks and Caicos Islands;Turks and Caicos Islands;TCA;TCA;TC;TC;TCA;796;796;TC;TCA;TCA;TCA;224;Americas;Americas;Caribbean;Latin America & Caribbean;;;;;;;;;;;;;;;;
TCD;TCD;TCD;TCD;SI;Chad;Chad;SI;Chad;Chad;SI;Tchad;Tchad;Chade;;the Republic of Chad;la República del Chad;la République du Tchad;;;;Chad;Chad;TCD;TCD;TD;TD;TCD;148;148;TD;TCD;TCD;TCD;39;Africa;Africa;Middle Africa;Sub-Saharan Africa;;;;;;;;;;;;;;;;
TGO;TGO;TGO;TGO;SI;Togo;Togo;SI;Togo;Togo;SI;Togo;Togo;Togo;;the Togolese Republic;la República Togolesa;la République togolaise;;;;Togo;Togo;TGO;TGO;TG;TG;TGO;768;768;TG;TGO;TGO;TGO;217;Africa;Africa;Western Africa;Sub-Saharan Africa;;;;;;;;;;;;;;;;
THA;THA;THA;THA;SI;Thailand;Thailand;SI;Tailandia;Tailandia;SI;Thaïlande;Thaïlande;Tailândia;;the Kingdom of Thailand;el Reino de Tailandia;le Royaume de Thaïlande;;;;Thailand;Thailand;THA;THA;TH;TH;THA;764;764;TH;THA;THA;THA;216;Asia;Asia;South-Eastern Asia;East Asia & Pacific;;;;;;;;;;;;;;;;
TJK;TJK;TJK;TJK;SI;Tajikistan;Tajikistan;SI;Tayikistán;Tayikistán;SI;Tadjikistan;Tadjikistan;Tajiquistão;;the Republic of Tajikistan;la República de Tayikistán;la République du Tadjikistan;;;;Tajikistan;Tajikistan;TJK;TJK;TJ;TJ;TJK;762;762;TJ;TJK;TJK;TJK;208;Asia;Asia;Central Asia;Europe & Central Asia;;;;;;;;;;;;;;;;
TKL;TKL;TKL;TKL;SI;Tokelau;Tokelau;SI;Tokelau;Tokelau;SI;Tokélaou;Tokélaou;Toquelau;;Tokelau;Tokelau;Tokélaou;;;;Tokelau;Tokelau;TKL;TKL;TK;TK;TKL;772;772;-99;-99;TKL;TKL;218;Oceania;Oceania;Polynesia;East Asia & Pacific;;;;;;;;;;;;;;;;
TKM;TKM;TKM;TKM;SI;Turkmenistan;Turkmenistan;SI;Turkmenistán;Turkmenistán;SI;Turkménistan;Turkménistan;Turquemenistão;;Turkmenistan;Turkmenistán;le Turkménistan;;;;Turkmenistan;Turkmenistan;TKM;TKM;TM;TM;TKM;795;795;TM;TKM;TKM;TKM;213;Asia;Asia;Central Asia;Europe & Central Asia;;;;;;;;;;;;;;;;
TLS;TLS;TLS;TLS;SI;Timor-Leste;Timor-Leste;SI;Timor-Leste;Timor-Leste;SI;Timor-Leste;Timor-Leste;Timor-Leste;;the Democratic Republic of Timor-Leste;la República Democrática de Timor-Leste;la République démocratique du Timor-Leste;;;;Timor-Leste;East Timor;TLS;TLS;TL;TL;TLS;626;626;TP;TMP;TLS;TLS;176;Asia;Asia;South-Eastern Asia;East Asia & Pacific;;;;;;;;;;;;;;;;
TON;TON;TON;TON;SI;Tonga;Tonga;SI;Tonga;Tonga;SI;Tonga;Tonga;Tonga;;the Kingdom of Tonga;el Reino de Tonga;le Royaume des Tonga;;;;Tonga;Tonga;TON;TON;TO;TO;TON;776;776;TO;TON;TON;TON;219;Oceania;Oceania;Polynesia;East Asia & Pacific;;;;;;;;;;;;;;;;
TTO;TTO;TTO;TTO;SI;Trinidad and Tobago;Trinidad and Tobago;SI;Trinidad y Tabago;Trinidad y Tabago;SI;Trinité-et-Tobago;Trinité-et-Tobago;Trindade e Tobago;;the Republic of Trinidad and Tobago;la República de Trinidad y Tabago;la République de Trinité-et-Tobago;;;;Trinidad and Tobago;Trinidad and Tobago;TTO;TTO;TT;TT;TTO;780;780;TT;TTO;TTO;TTO;220;Americas;Americas;Caribbean;Latin America & Caribbean;;;;;;;;;;;;;;;;
TUN;TUN;TUN;TUN;SI;Tunisia;Tunisia;SI;Túnez;Túnez;SI;Tunisie;Tunisie;Tunísia;;the Republic of Tunisia;la República de Túnez;la République tunisienne;;;;Tunisia;Tunisia;TUN;TUN;TN;TN;TUN;788;788;TN;TUN;TUN;TUN;222;Africa;Africa;Northern Africa;Middle East & North Africa;;;;;;;;;;;;;;;;
TUR;TUR;TUR;TUR;SI;Turkey;Turkey;SI;Turquía;Turquía;SI;Turquie;Turquie;Turquia;;the Republic of Turkey;la República de Turquía;la République turque;;;;Turkey;Turkey;TUR;TUR;TR;TR;TUR;792;792;TR;TUR;TUR;TUR;223;Asia;Asia;Western Asia;Europe & Central Asia;;;;;;;;;;;;;;;;
TUV;;TUV;TUV;SI;Tuvalu;Tuvalu;SI;Tuvalu;Tuvalu;SI;Tuvalu;Tuvalu;Tuvalu;;Tuvalu;Tuvalu;Tuvalu;;;;Tuvalu;Tuvalu;TUV;TUV;TV;TV;TUV;798;798;TV;TUV;TUV;TUV;227;Oceania;Oceania;Polynesia;East Asia & Pacific;;;;;;;;;;;;;;;;
TWN;TWN;TWN;;NO;;Taiwan;NO;;Taiwan;NO;;Taiwan;Taiwan;;Taiwan;Taiwan;Taiwan;;;;Taiwan;Taiwan;TWN;;TW;TW;TWN;158;-099;-99;-99;TWN;TWN;;Asia;Asia;Eastern Asia;East Asia & Pacific;;;;;;;;;;;;;;;;
TZA;TZA;TZA;TZA;SI;United Republic of Tanzania;United Republic of Tanzania;NO;República Unida de Tanzanía;Tanzania;SI;République-Unie de Tanzanie;République-Unie de Tanzanie;Tanzânia;;the United Republic of Tanzania;la República Unida de Tanzanía;la République-Unie de Tanzanie;;;;Tanzania;United Republic of Tanzania;TZA;TZA;TZ;TZ;TZA;834;834;TZ;TZA;TZA;TZA;215;Africa;Africa;Eastern Africa;Sub-Saharan Africa;;;;;;;;;;;;;;;;
UGA;UGA;UGA;UGA;SI;Uganda;Uganda;SI;Uganda;Uganda;SI;Ouganda;Ouganda;Uganda;;the Republic of Uganda;la República de Uganda;la République de l'Ouganda;;;;Uganda;Uganda;UGA;UGA;UG;UG;UGA;800;800;UG;UGA;UGA;UGA;226;Africa;Africa;Eastern Africa;Sub-Saharan Africa;;;;;;;;;;;;;;;;
UKR;UKR;UKR;UKR;SI;Ukraine;Ukraine;SI;Ucrania;Ucrania;SI;Ukraine;Ukraine;Ucrânia;;Ukraine;Ucrania;l'Ukraine;;;;Ukraine;Ukraine;UKR;UKR;UA;UA;UKR;804;804;UA;UKR;UKR;UKR;230;Europe;Europe;Eastern Europe;Europe & Central Asia;;;;;;;;;;;;;;;;
UMI;;;;NO;;United States Minor Outlying Islands;NO;;Islas Ultramarinas Menores de Estados Unidos;NO;;Îles mineures éloignées des États-Unis;Ilhas Menores Distantes dos Estados Unidos;;United States Minor Outlying Islands;Islas Ultramarinas Menores de Estados Unidos;Îles mineures éloignées des États-Unis;;;;;;;;;;;;;;;;;;;;;;;;;;;;;;;;;;;;;
URY;URY;URY;URY;SI;Uruguay;Uruguay;SI;Uruguay;Uruguay;SI;Uruguay;Uruguay;Uruguai;;the Eastern Republic of Uruguay;la República Oriental del Uruguay;la République orientale de l'Uruguay;;;;Uruguay;Uruguay;URY;URY;UY;UY;URY;858;858;UY;URY;URY;URY;234;Americas;Americas;South America;Latin America & Caribbean;;;;;;;;;;;;;;;;
USA;USA;USA;USA;SI;United States of America;United States of America;SI;Estados Unidos de América;Estados Unidos de América;SI;États-Unis d'Amérique;États-Unis d'Amérique;Estados Unidos;;the United States of America;los Estados Unidos de América;les États-Unis d'Amérique;;;;United States;United States of America;USA;USA;US;US;USA;840;840;US;USA;USA;USA;231;Americas;Americas;Northern America;North America;;;;;;;;;;;;;;;;
UZB;UZB;UZB;UZB;SI;Uzbekistan;Uzbekistan;SI;Uzbekistán;Uzbekistán;SI;Ouzbékistan;Ouzbékistan;Usbequistão;;the Republic of Uzbekistan;la República de Uzbekistán;la République d'Ouzbékistan;;;;Uzbekistan;Uzbekistan;UZB;UZB;UZ;UZ;UZB;860;860;UZ;UZB;UZB;UZB;235;Asia;Asia;Central Asia;Europe & Central Asia;;;;;;;;;;;;;;;;
VAT;VAT;VAT;VAT;SI;Holy See;Holy See;SI;Santa Sede;Santa Sede;SI;Saint-Siège;Saint-Siège;Vaticano;;Holy See;la Santa Sede;le Saint-Siège;;;;Vatican;Vatican;VAT;VAT;V;VA;VAT;336;336;-99;-99;VAT;VAT;94;Europe;Europe;Southern Europe;Europe & Central Asia;;;;;;;;;;;;;;;;
VCT;VCT;VCT;VCT;SI;Saint Vincent and the Grenadines;Saint Vincent and the Grenadines;SI;San Vicente y las Granadinas;San Vicente y las Granadinas;SI;Saint-Vincent-et-les Grenadines;Saint-Vincent-et-les Grenadines;São Vicente e Granadinas;;Saint Vincent and the Grenadines;San Vicente y las Granadinas;Saint-Vincent-et-les Grenadines;;;;Saint Vincent and the Grenadines;Saint Vincent and the Grenadines;VCT;VCT;VC;VC;VCT;670;670;VC;VCT;VCT;VCT;191;Americas;Americas;Caribbean;Latin America & Caribbean;;;;;;;;;;;;;;;;
VEN;VEN;VEN;VEN;NO;Venezuela (Bolivarian Republic of);Venezuela;NO;Venezuela (República Bolivariana de);Venezuela;NO;Venezuela (République bolivarienne du);Venezuela;Venezuela;;the Bolivarian Republic of Venezuela;la República Bolivariana de Venezuela;la République bolivarienne du Venezuela;;;;Venezuela;Venezuela;VEN;VEN;VE;VE;VEN;862;862;VE;VEN;VEN;VEN;236;Americas;Americas;South America;Latin America & Caribbean;;;;;;;;;;;;;;;;
VGB;VGB;VGB;VGB;SI;British Virgin Islands;British Virgin Islands;NO;Islas Vírgenes Británicas;Islas Vírgenes;SI;Îles Vierges britanniques;Îles Vierges britanniques;Ilhas Virgens Britânicas;;the British Virgin Islands;las Islas Vírgenes Británicas;les Îles Vierges britanniques;;;;British Virgin Islands;British Virgin Islands;VGB;VGB;VG;VG;VGB;092;092;-99;-99;VGB;VGB;239;Americas;Americas;Caribbean;Latin America & Caribbean;;;;;;;;;;;;;;;;
VIR;VIR;VIR;;NO;;United States Virgin Islands;NO;;Islas Vírgenes de los Estados Unidos;NO;;Îles Vierges des États-Unis;Ilhas Virgens Americanas;;United States Virgin Islands;Islas Vírgenes de los Estados Unidos;Îles Vierges des États-Unis;;;;United States Virgin Islands;United States Virgin Islands;VIR;;VI;VI;VIR;850;850;VI;VIR;VIR;VIR;240;Americas;Americas;Caribbean;Latin America & Caribbean;;;;;;;;;;;;;;;;
VNM;VNM;VNM;VNM;SI;Viet Nam;Viet Nam;SI;Viet Nam;Viet Nam;SI;Viet Nam;Viet Nam;Vietnam;;the Socialist Republic of Viet Nam;la República Socialista de Viet Nam;la République socialiste du Viet Nam;;;;Vietnam;Vietnam;VNM;VNM;VN;VN;VNM;704;704;VN;VNM;VNM;VNM;237;Asia;Asia;South-Eastern Asia;East Asia & Pacific;;;;;;;;;;;;;;;;
VUT;VUT;VUT;VUT;SI;Vanuatu;Vanuatu;SI;Vanuatu;Vanuatu;SI;Vanuatu;Vanuatu;Vanuatu;;the Republic of Vanuatu;la República de Vanuatu;la République de Vanuatu;;;;Vanuatu;Vanuatu;VUT;VUT;VU;VU;VUT;548;548;VU;VUT;VUT;VUT;155;Oceania;Oceania;Melanesia;East Asia & Pacific;;;;;;;;;;;;;;;;
WLF;WLF;WLF;WLF;SI;Wallis and Futuna Islands;Wallis and Futuna Islands;SI;Islas Wallis y Futuna;Islas Wallis y Futuna;SI;Îles Wallis et Futuna;Îles Wallis et Futuna;Ilhas Wallis e Futuna;;Wallis and Futuna Islands;Islas Wallis y Futuna;les Îles Wallis et Futuna;;;;Wallis and Futuna Islands;Wallis and Futuna;WLF;WLF;WF;WF;WLF;876;876;-99;-99;WLF;WLF;243;Oceania;Oceania;Polynesia;East Asia & Pacific;;;;;;;;;;;;;;;;
WSM;WSM;WSM;WSM;SI;Samoa;Samoa;SI;Samoa;Samoa;SI;Samoa;Samoa;Samoa;;the Independent State of Samoa;el Estado Independiente de Samoa;l'État indépendant du Samoa;;;;Samoa;Samoa;WSM;WSM;WS;WS;WSM;882;882;WS;WSM;WSM;WSM;244;Oceania;Oceania;Polynesia;East Asia & Pacific;;;;;;;;;;;;;;;;
YEM;YEM;YEM;YEM;SI;Yemen;Yemen;NO;el Yemen;Yemen;SI;Yémen;Yémen;Iémen;;the Republic of Yemen;la República del Yemen;la République du Yémen;;;;Yemen;Yemen;YEM;YEM;YE;YE;YEM;887;887;RY;YEM;YEM;YEM;249;Asia;Asia;Western Asia;Middle East & North Africa;;;;;;;;;;;;;;;;
ZAF;ZAF;ZAF;ZAF;SI;South Africa;South Africa;SI;Sudáfrica;Sudáfrica;SI;Afrique du Sud;Afrique du Sud;África do Sul;;the Republic of South Africa;la República de Sudáfrica;la République sud-africaine;;;;South Africa;South Africa;ZAF;ZAF;ZA;ZA;ZAF;710;710;ZA;ZAF;ZAF;ZAF;202;Africa;Africa;Southern Africa;Sub-Saharan Africa;;;;;;;;;;;;;;;;
ZMB;ZMB;ZMB;ZMB;SI;Zambia;Zambia;SI;Zambia;Zambia;SI;Zambie;Zambie;Zâmbia;;the Republic of Zambia;la República de Zambia;la République de Zambie;;;;Zambia;Zambia;ZMB;ZMB;ZM;ZM;ZMB;894;894;ZM;ZMB;ZMB;ZMB;251;Africa;Africa;Eastern Africa;Sub-Saharan Africa;;;;;;;;;;;;;;;;
ZWE;ZWE;ZWE;ZWE;SI;Zimbabwe;Zimbabwe;SI;Zimbabwe;Zimbabwe;SI;Zimbabwe;Zimbabwe;Zimbabwe;;the Republic of Zimbabwe;la República de Zimbabwe;la République du Zimbabwe;;;;Zimbabwe;Zimbabwe;ZWE;ZWE;ZW;ZW;ZWE;716;716;ZW;ZWE;ZWE;ZWE;181;Africa;Africa;Eastern Africa;Sub-Saharan Africa;;;;;;;;;;;;;;;;
;;;;;;;;;;;;;;;;;;;;;;;;;;;;;;;;;;;;;;;;;;;;;;;;;;;;;;
;;;;;;;;;;;;;;;;;;;;;;;;;;;;;;;;;;;;;;;;;;;;;;;;;;;;;;
;;;;;;;;;;;;;;;;;;;;;;;;;;;;;;;;;;;;;;;;;;;;;;;;;;;;;;
;;;;;;;;;;;;;;;;Antillas Neerlandesas;Antilles néerlandaises;;;;;;;;;;;;;;;;;;;;;;;;;;;;;;;;;;;;;
;;;;;;Ashmore and Cartier Islands;;;Islas Ashmore y Cartier;;;Îles Ashmore-et-Cartier;;;Ashmore and Cartier Islands;Islas Ashmore y Cartier;Îles Ashmore-et-Cartier;;;;Ashmore and Cartier Islands;Ashmore and Cartier Islands;ATC;;AU;-99;-99;36;-99;-99;-99;AUS;ATC;;Oceania;Oceania;Australia and New Zealand;East Asia & Pacific;;;;;;;;;;;;;;;;
;CYN;;;;;Northern Cyprus;;;República Turca del Norte de Chipre;;;Chypre du Nord;;;Northern Cyprus;República Turca del Norte de Chipre;Chypre du Nord;;;;Northern Cyprus;Northern Cyprus;CYN;;CN;-99;-99;-99;-099;-99;-99;CYP;CYP;;Asia;Asia;Western Asia;Europe & Central Asia;;;;;;;;;;;;;;;;
;KOS;XK;;;;Kosovo;;;Kósovo;;;Kosovo;;;Kosovo;Kósovo;Kosovo;;;;Kosovo;Kosovo;KOS;;KO;-99;-99;-99;-099;KV;KSV;SRB;KOS;;Europe;Europe;Southern Europe;Europe & Central Asia;;;;;;;;;;;;;;;;
;SAH;ESH;;;;Western Sahara;;;Sahara Occidental;;;Sahara occidental;Saara Ocidental;;Western Sahara;Sahara Occidental;Sahara occidental;;;;Western Sahara;Western Sahara;SAH;;WS;EH;ESH;732;732;-99;-99;MAR;SAH;205;Africa;Africa;Northern Africa;Middle East & North Africa;;;;;;;;;;;;;;;;
;;;ANT;;Netherlands Antilles;Netherlands Antilles;;Antillas Neerlandesas;;;Antilles néerlandaises;;;;;;;;;;;;;;;;;;;;;;;;;;;;;;;;;;;;;;;;;;;
;ATC;;;;;;;;;;;;;;;;;;;;;;;;;;;;;;;;;;;;;;;;;;;;;;;;;;;;;
;;UM-DQ;;;;Jarvis Island;;;;;;;;;;;;;;;;;;;;;;;;;;;;;;;;;;;;;;;;;;;;;;;;
;;UM-FQ;;;;Baker Island;;;;;;;;;;;;;;;;;;;;;;;;;;;;;;;;;;;;;;;;;;;;;;;;
;;UM-HQ;;;;Howland Island;;;;;;;;;;;;;;;;;;;;;;;;;;;;;;;;;;;;;;;;;;;;;;;;
;;UM-JQ;;;;Johnston Atoll;;;;;;;;;;;;;;;;;;;;;;;;;;;;;;;;;;;;;;;;;;;;;;;;
;;UM-MQ;;;;Midway Islands;;;;;;;;;;;;;;;;;;;;;;;;;;;;;;;;;;;;;;;;;;;;;;;;
;;UM-WQ;;;;Wake Island;;;;;;;;;;;;;;;;;;;;;;;;;;;;;;;;;;;;;;;;;;;;;;;;
